tipo,sub_tipo,codigo,nombre,provincia,codigo_departamento,departamento,localidad,direccion_geo,direccion,cp,telefono,extra1_actividades,extra2_prestaciones,extra3_responsable,lat,lon
oficina,ugl,0,,CIUDAD AUTONOMA BS.AS.,,,CAPITAL FEDERAL,TUCUMAN 753,TUCUMAN 753,1312,CONMUTADOR: 5071-0100,"Yoga / otras técnicas orientales, memoria, alimentación saludable, técnicas de trabajo corporal, periodismo, artesanías / manualidades, literatura, recreación, música, danzas, paseos, salidas breves con fines recreativos, artesanías / manualidades, canto / coro, idiomas, artes plásticas, juegos demesa, reflexión y narración.",5071-0194 / 195 /189,DR. JAIME DE LA PARRA,-34.6011557,-58.3774998
oficina,agencia,142,AG. 01 (CAPITAL),CIUDAD AUTONOMA BS.AS.,,,CAPITAL FEDERAL,JUAN BAUTISTA ALBERDI 5834,JUAN BAUTISTA ALBERDI 5834,1440,4635-2973 / 6438 / 6686 / 6685 DIRECTO: 4635-0547,"Música, juegos de mesa, juegos, festejos locales, narración, memoria, reflexión",,,-34.651497,-58.502458
oficina,agencia,143,AG. 02 (CAPITAL),CIUDAD AUTONOMA BS.AS.,,,CAPITAL FEDERAL,AVENIDA RIVADAVIA 8999,AVENIDA RIVADAVIA 8999,1408,4672-9795 / 9626 / 6674 / 8021 / 4674 4674-2783 / 1605 /1498 DIRECTO: 4674-6444,"Gimnasia, paseos, salidas locales breves con fines recreativos, juegos actividades acuaticas, festejos locales, danzas, memoria, reunión de organización, yoga y otras técnicas orientales, artesanías/manualidades, computación.",,,-34.635997,-58.491064
oficina,agencia,144,AG. 03 (CAPITAL),CIUDAD AUTONOMA BS.AS.,,,CAPITAL FEDERAL,AVENIDA FRANCISCO BEIRO 3572,AVENIDA FRANCISCO BEIRO 3572,1419,"4580-2780/81/82/83/84/85 DIRECTO4580-2781, fax: 4580-2784/86","Gimnasia, yoga / otras técnicas orientales, actividades acuáticas, festejos locales, danzas, memoria, reunión de organización, yoga / otras técnicas orientales, artesanias / manualidades y computación.",,,-34.600309,-58.502909
oficina,agencia,145,AG. 04 (CAPITAL),CIUDAD AUTONOMA BS.AS.,,,CAPITAL FEDERAL,VIDAL 2322,VIDAL 2322,1428,"4576-0940/41/42/43/44/45/46/47, fax: 4576-0946","Gimnasia, actividad acuática, deportes, reflexión, juegos, festejos locales, artesanizs/manualidades, teatro, historia y tradiciones, danzas, teatro, idiomas, canto/coro, cine debate, yoga / otras técnicas orientales, literatura, computación, narración, artes plasticas, música y memoria",,,-34.562114,-58.462096
oficina,agencia,146,AG. 05 (CAPITAL),CIUDAD AUTONOMA BS.AS.,,,CAPITAL FEDERAL,ECUADOR 638,ECUADOR 638,1214,"4511-0741/42/43/44/45/46/47/48 4961-8950 4962-0652, fax: 4511-0746","Técnicas de trabajo corporal, gimnasia, caminatas, actividad acuática, danzas juegos, artes plasticas, meoria, reflexión, yoga y otras técnicas orientales.",,,-34.602464,-58.407315
oficina,agencia,147,AG. 06 (CAPITAL),CIUDAD AUTONOMA BS.AS.,,,CAPITAL FEDERAL,AV. RIVADAVIA 7358,AV. RIVADAVIA 7358,1406,4611-8751/9095/9285 4612-0884,"Gimnasia, caminatas, actividad acuática, teatro, canto/coro, juegos literatura, naración, música memoria, artes plasticas, artesanias / manualidades, técnicas de trabajo corporal y artes plasticas.",,,-34.630489,-58.469074
oficina,agencia,148,AG. 07 (CAPITAL),CIUDAD AUTONOMA BS.AS.,,,CAPITAL FEDERAL,AVENIDA CORRIENTES 5165,AVENIDA CORRIENTES 5165,1414,"4514-9861/62/63/64/65/66/67, fax: 4514-9864","Voluntariado, danzas, actividad acuática, teatro, yoga / otras técnicas orientales, canto/coro, memoria, encuentros vivenciales, gimnasia, artesanias / manualidades, caminatas y literatura.",,,-34.600009,-58.438364
oficina,agencia,149,AG. 08 (CAPITAL),CIUDAD AUTONOMA BS.AS.,,,CAPITAL FEDERAL,AVENIDA BELGRANO 3880,AVENIDA BELGRANO 3880,1210,"4983-1674/3721 4981-3312 4982-2042, fax: 4982-1518 / 4983-1674","Actividad acuática, titeres, artesanias / manualidades, yoga / otras técnicas orientales, acciones solidarias donantes, memoria, reflexión, literatura, teatro y juegos.",,,-34.615833,-58.421305
oficina,agencia,150,AG. 09 (CAPITAL),CIUDAD AUTONOMA BS.AS.,,,CAPITAL FEDERAL,PASEO COLON 975,PASEO COLON 975,1063,"4362-4595 / 4292 / 4191 / 3133 / 0961 / 0510, fax: 4362-4494","Caminatas, reflexión, juegos, memoria, danzas, teatro, gimnasia, actividad solidaria con Escuela C. Pellegrini, técnicas de trabajo corporal, yoga / otras técnicas orientales y literatura.",,,-34.618976,-58.368992
oficina,agencia,151,AG. 10 (CAPITAL),CIUDAD AUTONOMA BS.AS.,,,CAPITAL FEDERAL,MORENO 1202,MORENO 1202,1312,4382-5533,"Gimnasia, yoga / otras técnicas orientales, caminatas, danzas, deportes, actividad acuática, reflexión, alimentación saludable, artesanías / manualidades, festejos locales, artes plasticas, técnicas de trabajo corporal, canto / coro, juegos, juegos de mesa, teatro, huertas, granja y jardinerías y controles médicos en salud.",,,-34.612019,-58.383497
oficina,agencia,694,BOCA DE ATENCION PARQUE PATRICIOS,CIUDAD AUTONOMA BS.AS.,,,CABA,AV. CASEROS 3401,AV. CASEROS 3401,1263,,,,,-34.638434,-58.413237
oficina,ugl,0,,BUENOS AIRES,,,BAHIA BLANCA,SAN MARTIN 261,SAN MARTIN 261,8000,"CONMUTADOR: 0291 459-2900, fax: 0291-4532911",,int. 132,DR. DAMIAN VANZINI,-38.7191614,-62.26201989999999
oficina,agencia,111,AG. SAAVEDRA,BUENOS AIRES,,,SAAVEDRA,C. LOPEZ 316,C. LOPEZ 316,8174,02923-497104,,,,-37.763183,-62.347291
oficina,agencia,112,AG. VILLA MITRE,BUENOS AIRES,,,VILLA MITRE,CASEROS 1581,CASEROS 1581,8001,0291-4818588,,,,-38.730502,-62.247101
oficina,agencia,114,AG. CORONEL ROSALES,BUENOS AIRES,,,PUNTA ALTA,HUMBERTO PRIMO 202,HUMBERTO PRIMO 202,8109,"02932-424844, fax: 0293-2424844",,,,-38.875399,-62.074091
oficina,agencia,115,AG. TRES ARROYOS,BUENOS AIRES,,,TRES ARROYOS,ISTILART 86,ISTILART 86,7500,"02983-430045, fax: 02983-430045",,,,-38.378067,-60.272094
oficina,agencia,116,AG. CORONEL PRINGLES,BUENOS AIRES,,,CORONEL PRINGLES,STEGMANN 557,STEGMANN 557,7530,02922-462903,,,,-37.986769,-61.353462
oficina,agencia,117,AG. CNEL DORREGO,BUENOS AIRES,,,CORONEL DORREGO,MACIEL 457,MACIEL 457,8150,"0292-1452007, fax: 0292-1452007",,,,-38.717662,-61.285357
oficina,agencia,118,AG. TORNQUIST,BUENOS AIRES,,,TORNQUIST,RAWSON 240,RAWSON 240,8160,"0291-4941301, fax: 0291-4941301",,,,-38.097686,-62.22383
oficina,agencia,119,AG. ORENSE,BUENOS AIRES,,,ORENSE,SARMIENTO 198,SARMIENTO 198,7503,"0298-2420074, fax: 0298-2420101/2420074",,,,-38.685309,-59.773965
oficina,agencia,120,AG. CORONEL SUAREZ,BUENOS AIRES,,,CORONEL SUAREZ,BELGRANO 1029,BELGRANO 1029,7540,"0292-6422072, fax: 0292-6422072",,,,-37.454556,-61.930804
oficina,agencia,121,AG. PELLEGRINI,BUENOS AIRES,,,PELLEGRINI,MARCONI 437,MARCONI 437,6346,"02392-498357, fax: 02392-498357",,,,-36.267321,-63.161652
oficina,agencia,122,AG. TRES LOMAS,BUENOS AIRES,,,TRES LOMAS,SAN MARTIN 362,SAN MARTIN 362,6409,"0239-4420427, fax: 0239-4420427",,,,-36.457326,-62.858634
oficina,agencia,123,AG. MONTE HERMOSO,BUENOS AIRES,,,MONTE HERMOSO,"TRAFUL BIS, GALERIA FENIZI LOCAL 268","TRAFUL BIS, GALERIA FENIZI LOCAL 268",8153,"02921-482258, fax: 02921-482258",,,,-38.986367,-61.285046
oficina,agencia,124,AG. CARMEN DE PATAGONES,BUENOS AIRES,,,CARMEN DE PATAGONES,7 DE MARZO 150,7 DE MARZO 150,8504,"0292-0461833, fax: 0292-0461833",,,,-40.800589,-62.985545
oficina,agencia,125,AG. MEDANOS,BUENOS AIRES,,,MEDANOS,BARTOLOME MITRE 400,BARTOLOME MITRE 400,8132,"02927-432013 / 433151, fax: 0292-7432013",,,,-38.827606,-62.693832
oficina,agencia,126,AG. SALLIQUELO,BUENOS AIRES,,,SALLIQUELO,HUGO STROEDER OESTE 516,HUGO STROEDER OESTE 516,6339,"02394-480266, fax: 02394-480266",,,,-36.750129,-62.960165
oficina,agencia,127,AG. GUAMINI,BUENOS AIRES,,,GUAMINI,AV. M. FREIRE 105,AV. M. FREIRE 105,6435,"0292-9432396, fax: 0292-9432396",,,,-37.011703,-62.417071
oficina,agencia,128,AG. CARHUE,BUENOS AIRES,,,CARHUE,LAPRIDA 960,LAPRIDA 960,6430,0293-6432692,,,,-37.176458,-62.755036
oficina,agencia,129,AG. PIGUE,BUENOS AIRES,,,PIGUE,MONSEÑOR DURBAN 701,MONSEÑOR DURBAN 701,8170,"0292-3472045, fax: 0292-3472045","Técnicas de Trabajo Corporal, Memoria, Alimentacion Saludable, Artesanías / Manualidades, Enfermedades Cardiovasculares, Prevención del Sedentarismo, Gimnasia, Controles Médicos en Salud",,,-37.602876,-62.40665
oficina,agencia,130,AG. PUAN,BUENOS AIRES,,,PUAN,SAN MARTIN 498,SAN MARTIN 498,8180,02923-498138 / 489575,,,,-37.543931,-62.76726
oficina,agencia,131,AG. HUANGUELEN,BUENOS AIRES,,,HUANGUELEN,CALLE 12 558,CALLE 12 558,7545,"0293-3432479, fax: 0293-3432479",,,,-37.062403,-61.932514
oficina,agencia,132,AG. PEDRO LURO,BUENOS AIRES,,,PEDRO LURO,CALLE 24 NRO. 162,CALLE 24 NRO. 162,8148,"0292-8420295, fax: 0292-8420295",,,,-39.501127,-62.683361
oficina,agencia,133,AG. DARREGUEIRA,BUENOS AIRES,,,DARREGUEIRA,ITALIA Y SAAVEDRA (CENTRO CIVICO),ITALIA Y SAAVEDRA (CENTRO CIVICO),8183,0292-4420205,,,,-37.691326,-63.160365
oficina,agencia,134,AG. CASBAS,BUENOS AIRES,,,CASBAS,SAN MARTIN 936,SAN MARTIN 936,6436,02929-480034,,,,-36.756387,-62.502859
oficina,agencia,136,AG. STROEDER,BUENOS AIRES,,,CARMEN DE PATAGONES,7 DE MARZO 411,7 DE MARZO 411,8508,02920-491404,,,,-40.183791,-62.617443
oficina,agencia,139,AG. DANIEL CERRI,BUENOS AIRES,,,DANIEL CERRI,J. M. GUTIERREZ 379,J. M. GUTIERREZ 379,8105,0291-4846275,,,,-38.720575,-62.39237
oficina,agencia,140,AG. INGENIERO WHITE,BUENOS AIRES,,,ING. WHITE,SICHES 3937,SICHES 3937,0,0291-457-1149,,,,-38.784314,-62.267314
oficina,ugl,0,,BUENOS AIRES,,,LA PLATA,AVENIDA 7 NRO. 170,AVENIDA 7 NRO. 170,1900,"CONMUTADOR: 0221 439-1000, fax: 0221-4271503","Literatura, alimentación saludable, gimnasia, caminatas, actividad acuática, enfermedades endócrino metabólicas",0221-4248673,SRA. ARACELI MASTELLONE SANCHEZ,-34.90341069999999,-57.9650022
oficina,agencia,159,AG. LOBOS,BUENOS AIRES,,,LOBOS,BARTOLOME MITRE 368,BARTOLOME MITRE 368,7240,2227-422111,"Yoga otras técnicas orientales, gimnasia, alimentación saludable, caminatas",,,-35.188084,-59.092609
oficina,agencia,160,AG. CHASCOMUS,BUENOS AIRES,,,CHASCOMUS,BELGRANO 115,BELGRANO 115,7130,02241-423143 / 431644,,,,-35.575189,-58.014833
oficina,agencia,161,AG. ALEJANDRO KORN,BUENOS AIRES,,,ALEJANDRO KORN,AV. PTE. PERON Y MITRE,AV. PTE. PERON Y MITRE,1864,2225-421091,,,,-34.99737,-58.39254
oficina,agencia,162,AG. MONTE,BUENOS AIRES,,,SAN MIGUEL DEL MONTE,SANTOS MOLINAS 765,SANTOS MOLINAS 765,7220,02271-420704,,,,-35.436967,-58.806818
oficina,agencia,163,AG. GRAL. BELGRANO,BUENOS AIRES,,,GENERAL BELGRANO,RIVADAVIA 64,RIVADAVIA 64,7223,02243-452860,,,,-35.766537,-58.496153
oficina,agencia,164,AG. CANUELAS,BUENOS AIRES,,,CANUELAS,BASAVILBASO 480,BASAVILBASO 480,1814,"02226-422930 / 431792, fax: 2226-422930",,,,-35.056717,-58.759199
oficina,agencia,165,AG. RANCHOS,BUENOS AIRES,,,RANCHOS,HIPOLITO YRIGOYEN 3247,HIPOLITO YRIGOYEN 3247,1987,02241-481027,,,,-35.51588,-58.315952
oficina,agencia,166,AG. CNEL. BRANDSEN,BUENOS AIRES,,,CNEL. BRANDSEN,ALBERTI 965,ALBERTI 965,1980,02223-443607,"Alimentación saludable, enfermedades endócrino metabólicas",,,-35.169318,-58.234173
oficina,agencia,167,AG. ENSENADA,BUENOS AIRES,,,ENSENADA,FERELLA 593,FERELLA 593,1925,0221-4692816,"Alimentación saludable, música, enfermedades endócrino metabólicas",,,-34.861496,-57.910656
oficina,agencia,168,AG. BERISSO,BUENOS AIRES,,,BERISSO,CALLE 161 N° 606 PB ESQ.8,CALLE 161 N° 606 PB ESQ.8,1923,0221-4640710,,,,-34.870317,-57.883877
oficina,agencia,169,AG. MAGDALENA,BUENOS AIRES,,,MAGDALENA,GOENAGA 882,GOENAGA 882,1913,2221-452722,,,,-35.075913,-57.517641
oficina,agencia,170,AG. GUERNICA,BUENOS AIRES,,,GUERNICA,RTA. 210 E/ AVDA. EVA PERON Y CALLE 24,RTA. 210 E/ AVDA. EVA PERON Y CALLE 24,7220,02224-473190,,,,-34.917185,-58.384187
oficina,agencia,171,AG. CITY BELL,BUENOS AIRES,,,CITY BELL,CON. CENTENARIO 76 (ENTRE PELLEGRINI Y GUEMES),CON. CENTENARIO 76 (ENTRE PELLEGRINI Y GUEMES),1896,0221-4720228,,,,-34.867597,-58.039218
oficina,agencia,172,AG. LOS HORNOS,BUENOS AIRES,,,LOS HORNOS,CALLE 66 NRO. 2340,CALLE 66 NRO. 2340,1903,0221-4507258,,,,-34.958875,-57.970866
oficina,agencia,173,AG. MELCHOR ROMERO,BUENOS AIRES,,,MELCHOR ROMERO,CALLE 169 1376 E/518 Y 519 CENTRO COMUNAL,CALLE 169 1376 E/518 Y 519 CENTRO COMUNAL,1903,0221-478-1600,,,,-34.946863,-58.048135
oficina,agencia,174,AG. VILLA ELISA,BUENOS AIRES,,,VILLA ELISA,AV. ARANA 574 E/CENTENARIO 7 LOC. 574,AV. ARANA 574 E/CENTENARIO 7 LOC. 574,1894,02221-4730098,,,,-34.859623,-58.086483
oficina,agencia,175,AG. MANUEL J. COBO,BUENOS AIRES,,,MANUEL J. COBO,SAN MARTIN 280,SAN MARTIN 280,7116,02242-432759,,,,-35.876394,-57.897699
oficina,agencia,176,AG. PILA,BUENOS AIRES,,,PILA,MAXIMA P.DE CASCO 240,MAXIMA P.DE CASCO 240,7110,2242-498186,,,,-36.003875,-58.142831
oficina,agencia,177,AG. CASTELLI,BUENOS AIRES,,,CASTELLI,AV. 25 DE MAYO 308,AV. 25 DE MAYO 308,7114,2245-480220,Actividad acuática,,,-36.1,-57.816667
oficina,agencia,178,AG. VERONICA,BUENOS AIRES,,,PUNTA INDIO,CALLE 30 1606,CALLE 30 1606,1917,2221-480270,,,,-35.390065,-57.33522
oficina,agencia,179,AG. VILLA ELVIRA (PUNTO DE ATENCION 2),BUENOS AIRES,,,BERISSO,AVENIDA 122 NRO 2431,AVENIDA 122 NRO 2431,1923,0221-453-0873,,,,-34.915668,-57.944541
oficina,ugl,0,,BUENOS AIRES,,,SAN MARTIN,RICARDO BALBIN 1954,RICARDO BALBIN 1954,1650,"CONMUTADOR: 011 4724-4700, fax: 4724-4746","Actividad acuática, yoga otras técnicas orientales, artesanías / manualidades, artes plásticas, gimnasia, danzas, computación, música, reflexión, arte culinario, festejos locales, memoria, paseos solidarios, encuentro recreativo, ropería, solidario",4724-4720 al 25,DR. ARMANDO DUNAIEWSKY,-34.6693725,-58.7438182
oficina,agencia,182,AG. CASEROS,BUENOS AIRES,,,CASEROS,JUAN B. ALBERDI 4665,JUAN B. ALBERDI 4665,1678,4512-7420/1/2 4716-2520/08/02/0733,,,,-34.6034,-58.561295
oficina,agencia,183,AG. VILLA BALLESTER,BUENOS AIRES,,,VILLA BALLESTER,PROF. FERNANDO AGUER 4977,PROF. FERNANDO AGUER 4977,1653,4512-5920 / 21,,,,-34.551034,-58.558184
oficina,agencia,184,AG. ESCOBAR,BUENOS AIRES,,,ESCOBAR,SPADACCINI 1078,SPADACCINI 1078,1625,0348-8420004,,,,-34.550963,-58.558227
oficina,agencia,185,AG. SAN ISIDRO,BUENOS AIRES,,,SAN ISIDRO,9 DE JULIO 336,9 DE JULIO 336,1642,4513-4688 / 80 AL 85,,,,-34.469592,-58.511342
oficina,agencia,186,AG. CAMPANA,BUENOS AIRES,,,CAMPANA,MORENO 331,MORENO 331,2804,03489-423861 / 423686,,,,-34.162919,-58.956674
oficina,agencia,187,AG. MUNRO,BUENOS AIRES,,,MUNRO,BERNARDINO RIVADAVIA 2534,BERNARDINO RIVADAVIA 2534,1605,4512-5931 / 4721-9619 / 18,,,,-34.528674,-58.521341
oficina,agencia,188,AG. VICENTE LOPEZ,BUENOS AIRES,,,VICENTE LOPEZ,AV. MAIPU 2124,AV. MAIPU 2124,1638,4519-5452/53/54,Yoga otras técnicas orientales,,,-34.52812,-58.473816
oficina,agencia,189,AG. SAN MIGUEL,BUENOS AIRES,,,SAN MIGUEL,MUÑOZ 1563,MUÑOZ 1563,1663,4664-3004/06/4335/4641/1486/5679/3246,"Yoga otras técnicas orientales, artesanías / manualidades, artes plásticas, gimnasia",,,-34.5402,-58.709074
oficina,agencia,190,AG. MALVINAS ARGENTINAS,BUENOS AIRES,,,GRAND BOURG,FRANCISCO SEGUI 1371,FRANCISCO SEGUI 1371,1614,02320-413700 / 800 / 900,,,,-34.486361,-58.723751
oficina,agencia,191,AG. JOSE C. PAZ,BUENOS AIRES,,,JOSE CLEMENTE PAZ,PTE. PERON 3832,PTE. PERON 3832,1665,02320-442604 / 436755,,,,-34.525793,-58.734523
oficina,agencia,192,AG. TIGRE,BUENOS AIRES,,,TIGRE,AV. CAZON 966,AV. CAZON 966,1648,4580-5580 / 81 / 82 / 83 / 84 / 85 / 86,"Gimnasia, actividad acuática",,,-34.42778,-58.574148
oficina,agencia,193,AG. SAN FERNANDO,BUENOS AIRES,,,SAN FERNANDO,AV. CONSTITUCION 1452,AV. CONSTITUCION 1452,1646,4580-57774,,,,-34.443389,-58.553828
oficina,agencia,194,AG. GRAL. PACHECO,BUENOS AIRES,,,GENERAL PACHECO,CONSTITUYENTES 44,CONSTITUYENTES 44,1617,"4512-9350 / 9351, fax: 4512-9350 / 9351",,,,-34.459349,-58.635968
oficina,agencia,195,AG. VILLA ZAGALA,BUENOS AIRES,,,VILLA ZAGALA,AV. CONSTITUYENTES 3146,AV. CONSTITUYENTES 3146,0,4712-2752,,,,-34.549991,-58.524796
oficina,ugl,0,,BUENOS AIRES,,,REMEDIOS DE ESCALADA,AV. HIPOLITO YRIGOYEN 6247,AV. HIPOLITO YRIGOYEN 6247,1826,"CONMUTADOR: 011- 5088-2000, fax: 4248-9379",,4242-3096 / 4288-0993,SR. ISMAEL RAMON ALE,-34.7277799,-58.3958805
oficina,agencia,218,AG. VALENTIN ALSINA,BUENOS AIRES,,,VALENTIN ALSINA,JUAN DOMINGO PERÓN 3872,JUAN DOMINGO PERÓN 3872,1822,4228-3246/3163,,,,-34.668935,-58.41225
oficina,agencia,219,AG. LANUS CENTRO,BUENOS AIRES,,,LANUS ESTE,ARTURO ILLIA 1173 (ex Emilio Mitre),ARTURO ILLIA 1173 (ex Emilio Mitre),1824,4241-2959 / 4275 / 3468 / 4225-1534 JEFATURA: 4249-8508,"Gimnasia, danzas, yoga otras actividades orientales, actividad acuática",,,-34.705194,-58.386458
oficina,agencia,220,AG. MONTE CHINGOLO,BUENOS AIRES,,,MONTE CHINGOLO,CENTENARIO URUGUAYO 1380,CENTENARIO URUGUAYO 1380,1824,4246-3619,,,,-34.720874,-58.361031
oficina,agencia,221,AG. LOMAS DE ZAMORA,BUENOS AIRES,,,LOMAS DE ZAMORA,AV. ALSINA 1923,AV. ALSINA 1923,1832,4292-0958 / 0492 / 0994 CONMUTADOR: 4292-1264,"Gimnasia, técnicas de trabajo corporal, caminatas, actividad acuática, danzas, música, canto / coro, artes plásticas, artesanías / manualidades, juegos, reflexión, enfermedades endócrino metabólicas, juegos de mesa, música, yoga otras actividades orientales alimentación saludable",,,-34.759155,-58.39605
oficina,agencia,222,AG. MONTE GRANDE,BUENOS AIRES,,,MONTE GRANDE,MAXIMO PAZ 11,MAXIMO PAZ 11,1842,4290-0042 / 4281-7389,,,,-34.813962,-58.470229
oficina,agencia,223,AG. ADROGUE,BUENOS AIRES,,,ADROGUE,CANALE 961,CANALE 961,1846,4293-8369 / 4294-2373,,,,-34.781417,-58.365562
oficina,agencia,224,AG. VILLA FIORITO,BUENOS AIRES,,,VILLA FIORITO,EL PLUMERILLO 2148,EL PLUMERILLO 2148,1831,4286-4214,,,,-34.707857,-58.439931
oficina,agencia,225,AG. EZEIZA,BUENOS AIRES,,,EZEIZA,CONQUISTA DEL DESIERTO 372,CONQUISTA DEL DESIERTO 372,1804,4389-0332/0509/0572 4232-8996,,,,-34.855158,-58.52353
oficina,agencia,226,AG. AVELLANEDA,BUENOS AIRES,,,AVELLANEDA,BEGUERESTAIN 30,BEGUERESTAIN 30,1870,4203-6133 / 9944 / 3489 DIRECTO: 4203-3658,"Actividad acuática, memoria, yoga otras técnicas orientales, gimnasia, artesanías / manualidades",,,-34.669817,-58.35376
oficina,agencia,227,AG. PIÑEYRO,BUENOS AIRES,,,PIÑEYRO,VILLEGAS 15,VILLEGAS 15,1870,4201-7236,,,,-34.666517,-58.378626
oficina,agencia,228,AG. GLEW,BUENOS AIRES,,,GLEW,SARMIENTO 195,SARMIENTO 195,1856,02224-434993 / 4963,,,,-34.890718,-58.386887
oficina,agencia,229,AG. BANFIELD,BUENOS AIRES,,,BANFIELD,HIPOLITO YRIGOYEN 6922,HIPOLITO YRIGOYEN 6922,1828,4202-6263 / 6648 / 2817,,,,-34.735511,-58.397487
oficina,agencia,696,AG. WILDE,BUENOS AIRES,,,WILDE,FABIAN ONZARI 184,FABIAN ONZARI 184,1875,4206-0779/1657 - 4217-3328/1952,,,,-34.705476,-58.318995
oficina,ugl,0,,BUENOS AIRES,,,MAR DEL PLATA,BALCARCE 3296,BALCARCE 3296,7600,"CONMUTADOR: 0223 499-1200, fax: 0223-4925569",,0223-4991252,DR. FERNANDO MARTIN ALI,-37.9909988,-57.550045
oficina,agencia,232,AG. BALCARCE,BUENOS AIRES,,,BALCARCE,CALLE 15 NRO. 401,CALLE 15 NRO. 401,7620,02266-423796,,,,-37.842173,-58.258356
oficina,agencia,233,AG. NECOCHEA,BUENOS AIRES,,,NECOCHEA,AV. 62 NRO. 3143,AV. 62 NRO. 3143,7630,02262-425134 435378,,,,-38.554458,-58.743964
oficina,agencia,234,AG. STA. TERESITA,BUENOS AIRES,,,SANTA TERESITA,CALLE 35 NRO. 801,CALLE 35 NRO. 801,7107,02246-420598 / 420128 / 420695,,,,-36.536761,-56.700014
oficina,agencia,235,AG. SAN CAYETANO,BUENOS AIRES,,,SAN CAYETANO,BELGRANO Y JUSTO GIRADO,BELGRANO Y JUSTO GIRADO,7521,02983-440501,,,,-38.344012,-59.613891
oficina,agencia,236,AG. LOBERIA,BUENOS AIRES,,,LOBERIA,ALEM 169,ALEM 169,7635,02261-443098,"Yoga otras actividades orientales, danzas",,,-38.162433,-58.781505
oficina,agencia,237,AG. MIRAMAR,BUENOS AIRES,,,MIRAMAR,CALLE 28 NRO. 1127,CALLE 28 NRO. 1127,7607,02291-421117,"Gimnasia, yoga otras actividades orientales, danzas, memoria, artesanías / manualidades, teatro, memoria, música, canto / coro",,,-38.268814,-57.84006
oficina,agencia,238,AG. VILLA GESELL,BUENOS AIRES,,,VILLA GESELL,PASEO 105 NRO. 365,PASEO 105 NRO. 365,7165,02255-467176,,,,-37.255763,-56.970037
oficina,agencia,239,AG. GRAL. MADARIAGA,BUENOS AIRES,,,GRAL. MADARIAGA,HIPOLITO IRIGOYEN 122,HIPOLITO IRIGOYEN 122,7163,02267-425448,,,,-36.997549,-57.13407
oficina,agencia,240,AG. CNEL. VIDAL,BUENOS AIRES,,,CORONEL VIDAL,AVELLANEDA 40,AVELLANEDA 40,7174,02265-432383,,,,-37.449003,-57.728523
oficina,agencia,241,AG. MAIPU,BUENOS AIRES,,,MAIPU,JULIAN LYNCH 641,JULIAN LYNCH 641,7160,02268-421569,,,,-36.863759,-57.877278
oficina,agencia,242,AG. DOLORES,BUENOS AIRES,,,DOLORES,CASTELLI 152,CASTELLI 152,7100,02245-447133,,,,-36.326415,-57.669278
oficina,agencia,243,AG. PINAMAR,BUENOS AIRES,,,PINAMAR,MARCO POLO ESQ. JASON,MARCO POLO ESQ. JASON,7167,02254-484338,,,,-37.112266,-56.865774
oficina,agencia,244,AG. GENERAL GUIDO,BUENOS AIRES,,,GENERAL GUIDO,ANSELMO CEPEDA 150,ANSELMO CEPEDA 150,7118,02268-491087,,,,-36.641014,-57.791963
oficina,agencia,245,AG. MAR DE AJO,BUENOS AIRES,,,MAR DE AJO,SAN JUAN 1263,SAN JUAN 1263,7109,02257-429357,,,,-36.705019,-56.67817
oficina,agencia,246,AG. ZONA PUERTO MAR DEL PLATA,BUENOS AIRES,,,MAR DEL PLATA,RONDEAU 520,RONDEAU 520,7600,0223-4895058 / 4804330,,,,-38.040706,-57.550875
oficina,agencia,247,AG. QUEQUEN,BUENOS AIRES,,,QUEQUEN,CALLE 521 N° 2399,CALLE 521 N° 2399,7631,02262-452870,,,,-38.558536,-58.711606
oficina,agencia,248,AG. SAN CLEMENTE DEL TUYU,BUENOS AIRES,,,SAN CLEMENTE DEL TUYU,CALLE 4 NRO. 2303,CALLE 4 NRO. 2303,7105,02252-422700,,,,-36.359185,-56.716107
oficina,agencia,249,AG. GENERAL PIRAN,BUENOS AIRES,,,GENERAL PIRAN,BELGRANO 351,BELGRANO 351,7172,02265-491023,,,,-37.27477,-57.774979
oficina,agencia,250,AG. CMTE. NICANOR OTAMENDI,BUENOS AIRES,,,CMTE. NICANOR OTAMENDI,PUEYRREDON 2565,PUEYRREDON 2565,7603,02291-480031,,,,-38.110384,-57.841845
oficina,agencia,251,AG. JUAN N. FERNANDEZ,BUENOS AIRES,,,J. N. FERNANDEZ,CALLE 35 ESQ. 20,CALLE 35 ESQ. 20,7011,02264-498270,,,,-38.006511,-59.263873
oficina,agencia,252,AG. LA DULCE,BUENOS AIRES,,,LA DULCE,CALLE 33 NRO. 45,CALLE 33 NRO. 45,7636,02264-432444,,,,-38.282526,-59.199965
oficina,agencia,253,AG. SANTA CLARA DEL MAR,BUENOS AIRES,,,SANTA CLARA DEL MAR,LASTRES 174,LASTRES 174,7609,0223-4504141,,,,-37.842733,-57.505406
oficina,agencia,254,AG. BATAN,BUENOS AIRES,,,BATAN,CALLE 136 ESQ. 155,CALLE 136 ESQ. 155,7601,0223-4642174,,,,-38.008269,-57.709901
oficina,agencia,255,AG. GENERAL LAVALLE,BUENOS AIRES,,,GRAL. LAVALLE,DE LA SERNA 1064,DE LA SERNA 1064,7103,02252-491337,,,,-36.405741,-56.943183
oficina,agencia,256,AG. TANDIL,BUENOS AIRES,,,TANDIL,PINTO 869,PINTO 869,7600,0249-4422531/2/4429320/4449521,Yoga otras técnicas orientales,,,-37.325601,-59.13222
oficina,agencia,257,AG. AYACUCHO,BUENOS AIRES,,,AYACUCHO,9 DE JULIO 737,9 DE JULIO 737,7150,02296-451180,,,,-37.152912,-58.489476
oficina,agencia,258,AG. BENITO JUAREZ,BUENOS AIRES,,,BENITO JUAREZ,CORDOBA 95,CORDOBA 95,7020,02292-451280,,,,-37.674565,-59.798244
oficina,agencia,259,AG. RAUCH,BUENOS AIRES,,,RAUCH,GARRALDA 294,GARRALDA 294,7203,02297-442429,,,,-36.775966,-59.093295
oficina,agencia,260,AG. GONZALEZ CHAVES,BUENOS AIRES,,,GONZALEZ CHAVEZ,LAVALLE 65,LAVALLE 65,7513,02983-484144,,,,-38.03349,-60.095265
oficina,agencia,672,BOCA DE ATENCION TUCUMAN,BUENOS AIRES,,,MAR DEL PLATA,TUCUMÁN 2271,TUCUMÁN 2271,7600,0223- 495-8612 / 4392,,,,-38.007086,-57.544545
oficina,agencia,686,BOCA DE ATENCION CONSTITUCION,BUENOS AIRES,,,MAR DEL PLATA,CONSTITUCIÓN 5988,CONSTITUCIÓN 5988,7600,,,,,-37.960271,-57.563964
oficina,ugl,0,,BUENOS AIRES,,,MORON,SAN MARTIN 444,SAN MARTIN 444,1708,CONMUTADOR: 011-4133-3000,"Yoga otras técnicas orientales, actividad acuática, danzas, huertas granjas, diferenc. en géneros en el envej., capac. y transf, de tec. en lideraz. comunit. a organiz., historia y tradiciones",4133-3026,LIC. CLAUDIO MARCELO RIGHES,-34.6533866,-58.6227128
oficina,agencia,551,AG. HURLINGHAM,BUENOS AIRES,,,HURLINGHAM,JUAN DIAZ DE SOLIS 1308,JUAN DIAZ DE SOLIS 1308,1686,4662-5673 / 4665-6020 / 9005,,,,-34.591583,-58.634852
oficina,agencia,552,AG. ITUZAINGO,BUENOS AIRES,,,ITUZAINGO,LOS POZOS 126,LOS POZOS 126,1714,"4623-4536, fax: 4661-3163 / 3160",,,,-34.661681,-58.668112
oficina,agencia,553,AG. MERLO,BUENOS AIRES,,,MERLO,AVDA. ARGENTINA 1245,AVDA. ARGENTINA 1245,1722,"0220-4854999 / 4851435, fax: 0220-4825662 / 4838290 / 4867689","gimnasia, narración, historia / tradiciones, sexualidad",,,-34.673806,-58.724073
oficina,agencia,554,AG. MORENO,BUENOS AIRES,,,MORENO,ALCORTA 2454,ALCORTA 2454,1744,"0237-4635352 / 4623813 / 4635133, fax: 0237-4623813","Gimnasia, artesanías / manualidades",,,-34.651885,-58.785764
oficina,agencia,673,BOCA DE ATENCION LA TORCACITA,BUENOS AIRES,,,ITUZAINGO,SANTOS VEGA Y QUIROGA,SANTOS VEGA Y QUIROGA,1713,4621-0183,,,,-34.610959,-58.70077
oficina,agencia,681,BOCA DE ATENCION SAN ALBERTO,BUENOS AIRES,,,ITUZAINGO,CORONEL PRINGLES 2740,CORONEL PRINGLES 2740,1714,4481-5412,,,,-34.647667,-58.705512
oficina,agencia,693,BOCA DE ATENCION MORON SUR,BUENOS AIRES,,,MORON,AV BARADERO 1340,AV BARADERO 1340,1708,,,,,-34.689598,-58.63659
oficina,ugl,0,,BUENOS AIRES,,,AZUL,SAN MARTIN 500,SAN MARTIN 500,7300,"02281-425269 / 424467 / 431570 / 430700 / 430888 / 431571 / 433639 / 430120 / 433227, fax: 02281-422782","Gimnasia, técnicas de trabajo corporal, memora, artesanías / manualidades, festejos locales, paseos salidas locales breves con fines recreativos, alimentación saludable, voluntariado, encuentros vivenciales, danzas, yoga otras técnicas orientales, canto / coro",02281-433639,DRA. ADRIANA CAPUANO,-36.77874,-59.862609
oficina,agencia,556,AG. LAS FLORES,BUENOS AIRES,,,LAS FLORES,SAN MARTIN 623,SAN MARTIN 623,7200,"02244-453028, 02244-451000",Danzas,,,-36.015956,-59.09808
oficina,agencia,557,AG. SALADILLO,BUENOS AIRES,,,SALADILLO,MORENO 2971,MORENO 2971,7260,02344-453472,,,,-35.637872,-59.779494
oficina,agencia,558,AG. ROQUE PEREZ,BUENOS AIRES,,,ROQUE PEREZ,9 DE JULIO 1266,9 DE JULIO 1266,7245,02227-491508,"Danzas, Yoga otras técnicas orientales",,,-35.398146,-59.333646
oficina,agencia,559,AG. GRAL. ALVEAR,BUENOS AIRES,,,GENERAL ALVEAR,SAN MARTIN 679,SAN MARTIN 679,7263,02344-481021,,,,-36.021301,-60.013897
oficina,agencia,560,AG. TAPALQUE,BUENOS AIRES,,,TAPALQUE,PEDRO BIOY 102,PEDRO BIOY 102,7303,02283-420068,,,,-36.355366,-60.022953
oficina,agencia,561,AG. CHILLAR,BUENOS AIRES,,,CHILLAR,CORTAZAR 734,CORTAZAR 734,7311,02281-497022,,,,-37.313656,-59.984071
oficina,agencia,562,AG. CACHARI,BUENOS AIRES,,,CACHARI,RIVADAVIA 1697,RIVADAVIA 1697,7214,02281-481002,,,,-36.379383,-59.502794
oficina,agencia,563,AG. OLAVARRIA,BUENOS AIRES,,,OLAVARRIA,DORREGO 2635,DORREGO 2635,7400,02284-425760 / 422318,"Yoga otras técnicas orientales, computación, gimnasia, actividad física y caminatas recreativas, danzas, artesanías / manualidades, controles médicos en salud, alimentación saludable",,,-36.891343,-60.322176
oficina,agencia,564,AG. LAPRIDA,BUENOS AIRES,,,LAPRIDA,AVDA. PEDRO PEREYRA 1339,AVDA. PEDRO PEREYRA 1339,7414,02285-420133,"Danzas, Yoga otras técnicas orientales",,,-37.545283,-60.798942
oficina,agencia,565,AG. DAIREAUX,BUENOS AIRES,,,DAIREAUX,PELLEGRINI 389,PELLEGRINI 389,6555,02316-452679,Computación,,,-36.59925,-61.745871
oficina,agencia,566,AG. BOLIVAR,BUENOS AIRES,,,BOLIVAR,OLAVARRIA 262,OLAVARRIA 262,6550,02314-427570/427292,"Danzas, artesanías / manualidades",,,-36.229008,-61.111929
oficina,agencia,567,AG. GENERAL LAMADRID,BUENOS AIRES,,,GENERAL LAMADRID,MORENO 614,MORENO 614,7406,02286-420365,,,,-37.246011,-61.26209
oficina,agencia,568,AG. SIERRAS BAYAS,BUENOS AIRES,,,SIERRAS BAYAS,RIVADAVIA 2204,RIVADAVIA 2204,7403,02284-492241,,,,-36.931987,-60.16089
oficina,agencia,569,AG. SALAZAR,BUENOS AIRES,,,SALAZAR,SARMIENTO 373,SARMIENTO 373,6471,,,,,-36.306082,-62.201353
oficina,ugl,0,,BUENOS AIRES,,,JUNIN,BARTOLOME MITRE 24,BARTOLOME MITRE 24,6000,"0236-4423420 / 4420499 / 4432667 / 4441250, fax: 0236-4427444",,int. 28 / 18 / 16 / 26,INTERVENTORA CDORA. MELINA ZULAICA,-34.5937223,-60.94583729999999
oficina,agencia,571,AG. GRAL. PINTO,BUENOS AIRES,,,GENERAL PINTO,ALSINA 464,ALSINA 464,6050,02356-420220,,,,-34.764426,-61.892037
oficina,agencia,572,AG. LINCOLN,BUENOS AIRES,,,LINCOLN,MORENO 66,MORENO 66,6070,02355-423351,,,,-34.867166,-61.532003
oficina,agencia,573,AG. GRAL. VILLEGAS,BUENOS AIRES,,,GENERAL VILLEGAS,ARENALES 368,ARENALES 368,6230,03388-421444,,,,-35.034354,-63.018011
oficina,agencia,574,AG. GRAL. ARENALES,BUENOS AIRES,,,GENERAL ARENALES,AVDA. ALVEAR 161,AVDA. ALVEAR 161,6005,02353-460304,,,,-34.302695,-61.303757
oficina,agencia,575,AG. GRAL. VIAMONTE,BUENOS AIRES,,,GENERAL VIAMONTE,COLIQUEO 130,COLIQUEO 130,6015,02358-442548,,,,-35.00281,-61.036802
oficina,agencia,576,AG. VEDIA,BUENOS AIRES,,,VEDIA,LAVALLE 90,LAVALLE 90,6030,02354-420359,,,,-34.495823,-61.539513
oficina,agencia,577,AG. ROJAS,BUENOS AIRES,,,ROJAS,EVA PERON 544,EVA PERON 544,2705,02475-4624587,,,,-34.198706,-60.73303
oficina,agencia,578,AG. AMEGHINO,BUENOS AIRES,,,AMEGHINO,CALLE 5 ESQ. 24,CALLE 5 ESQ. 24,6064,03388-471200,,,,-34.844733,-62.466681
oficina,agencia,579,AG. ROBERTS,BUENOS AIRES,,,ROBERTS,SARMIENTO 1232,SARMIENTO 1232,6075,02355-49812,,,,-35.143529,-61.968477
oficina,agencia,580,AG. PERGAMINO,BUENOS AIRES,,,PERGAMINO,SAN MARTIN 637,SAN MARTIN 637,2700,0247-7427070 / 4075 / 9653 / 9070,,,,-33.895675,-60.574196
oficina,agencia,581,AG. COLON,BUENOS AIRES,,,COLON,CALLE 47 NRO. 759,CALLE 47 NRO. 759,2720,02473-421895,,,,-33.895604,-61.102999
oficina,agencia,582,AG. SAN NICOLAS,BUENOS AIRES,,,SAN NICOLAS,BME. MITRE 381,BME. MITRE 381,2900,0336-4434337,"Gimnasia, caminata, paseos salidas locales breves con fines recreativos, yoga otras técnicas orientales, danzas, actividades acuáticas, literatura, memoria",,,-33.334006,-60.222334
oficina,agencia,583,AG. RAMALLO,BUENOS AIRES,,,RAMALLO,AV. DEL LIB. GRAL. SAN MARTIN 550,AV. DEL LIB. GRAL. SAN MARTIN 550,2915,03407-421295,,,,-33.497047,-60.06198
oficina,agencia,584,AG. PEREZ MILLAN,BUENOS AIRES,,,PEREZ MILLAN,MORENO S/NRO.,MORENO S/NRO.,2933,03329-492175,,,,-33.770657,-60.092837
oficina,agencia,697,BOCA DE ATENCION LA EMILIA,BUENOS AIRES,,,SAN NICOLAS,E. FERREIRA 308,E. FERREIRA 308,2901,,,,,-33.34996,-60.316579
oficina,ugl,0,,BUENOS AIRES,,,LUJAN,SAN MARTIN ESQ. COLON,SAN MARTIN ESQ. COLON,6700,"CONMUTADOR: 02323 40-9200, fax: 02323-424649","Alimentación saludable, controles médicos en salud, enfermedades endócrino metabólicas, juegos, actividad acuática, técnicas de trabajo corporal, danzas, gimnasia, memoria, yoga otras técnicas orientales, arte culinario, caminatas",02323-430547 int. 219 /236,LIC. GUIDO BORDACHAR,-34.5701599,-59.1173134
oficina,agencia,586,AG. SAN ANDRES DE GILES,BUENOS AIRES,,,SAN ANDRES DE GILES,25 DE MAYO 401,25 DE MAYO 401,6720,02325-442081,"Canto / coro, reflexión, yoga otras técnicas orientales, danzas, teatro, gimnasia",,,-34.440522,-59.445223
oficina,agencia,587,AG. GRAL. RODRIGUEZ,BUENOS AIRES,,,GENERAL RODRIGUEZ,SARMIENTO 576,SARMIENTO 576,1748,0237-4840001,,,,-34.605255,-58.955559
oficina,agencia,588,AG. MERCEDES,BUENOS AIRES,,,MERCEDES,CALLE 25 NRO. 369 ESQ 16,CALLE 25 NRO. 369 ESQ 16,6600,02324-423938 / 420169,"Yoga otras técnicas orientales, gimnasia, caminatas, enfermedades endócrino metabólicas, alimentación saludable, reflexión",,,-34.653068,-59.430674
oficina,agencia,589,AG. PILAR,BUENOS AIRES,,,PILAR,PEDRO LAGRAVE 342,PEDRO LAGRAVE 342,1629,0230-4428510 / 4423057,"Violencia familiar, artesanías / manualidades, memoria, bordado, alimentación saludable, actividad acuática, caminatas",,,-34.456872,-58.90994
oficina,agencia,590,AG. SAN ANTONIO DE ARECO,BUENOS AIRES,,,SAN ANTONIO DE ARECO,ALVEAR 557,ALVEAR 557,2760,02326-452004,,,,-34.247089,-59.467903
oficina,agencia,591,AG. MARCOS PAZ,BUENOS AIRES,,,MARCOS PAZ,ARISTOBULO DEL VALLE 2098,ARISTOBULO DEL VALLE 2098,1727,0220-4772976 / 79,"Gimnasia, controles médicos en salud, enfermedades endócrino metabólicas, memoria",,,-34.784466,-58.836554
oficina,agencia,592,AG. CAPILLA DEL SENOR,BUENOS AIRES,,,CAPILLA DEL SEÑOR,JOSE MANUEL ESTRADA 405,JOSE MANUEL ESTRADA 405,2812,02323-492124,"Gimnasia, caminatas, enfermedades endócrino metabólicas, danzas, actividad acuática, yoga otras técnicas orientales",,,-34.292201,-59.101964
oficina,agencia,593,AG. NAVARRO,BUENOS AIRES,,,NAVARRO,CALLE 7 NRO. 92,CALLE 7 NRO. 92,6605,02272-421011,,,,-35.003636,-59.273822
oficina,agencia,594,AG. GRAL. LAS HERAS,BUENOS AIRES,,,GENERAL LAS HERAS,25 DE MAYO 1048,25 DE MAYO 1048,1741,0220-4761363,,,,-34.926229,-58.948224
oficina,agencia,595,AG. GARIN,BUENOS AIRES,,,GARIN,SARMIENTO 306,SARMIENTO 306,1619,03488-470023 / 476609 / 476643,,,,-34.41877,-58.734416
oficina,agencia,596,AG. DEL VISO,BUENOS AIRES,,,DEL VISO,LISANDRO DE LA TORRE 7031,LISANDRO DE LA TORRE 7031,1669,02320-300360/361,,,,-34.449016,-58.796943
oficina,agencia,597,AG. ZARATE,BUENOS AIRES,,,ZARATE,19 DE MARZO 630,19 DE MARZO 630,2800,03487-423379 / 424406 / 436850 / 438523,Yoga otras técnicas orientales,,,-34.100007,-59.020275
oficina,agencia,598,AG. BARADERO,BUENOS AIRES,,,BARADERO,LAPRIDA 929,LAPRIDA 929,2942,03329-480045,,,,-33.808963,-59.504535
oficina,agencia,599,AG. LIMA,BUENOS AIRES,,,LIMA,CALLE 6 Nº 63,CALLE 6 Nº 63,2806,03487-480314,,,,-34.044943,-59.197472
oficina,agencia,602,AG. PRESIDENTE DERQUI,BUENOS AIRES,,,DERQUI,SAN MARTIN 414,SAN MARTIN 414,1635,02322-4488415,,,,-34.491525,-58.844665
oficina,agencia,677,AG. JAUREGUI,BUENOS AIRES,,,JAUREGUI,AV. FLANDES 541,AV. FLANDES 541,6706,02323-487266/487267,,,,-34.598596,-59.177452
oficina,agencia,680,AG. MAQUINISTA SAVIO,BUENOS AIRES,,,MAQUINISTA SAVIO,REPUBLICA DEL PARAGUAY 377 (EX. AGUSTIN JUSTO),REPUBLICA DEL PARAGUAY 377 (EX. AGUSTIN JUSTO),1619,0348-4468479,,,,-34.40698,-58.775357
oficina,ugl,0,,BUENOS AIRES,,,SAN JUSTO,PERU 2559,PERU 2559,1754,"CONMUTADOR: 011 4003-1100, fax: 4441-3265","Yoga otras tpecnicas orientales, actividad acuática, gimnasia, técnicas para el trabajo corporal, juegos de mesa, caminatas, voluntariado, diferenc. en géneros en el envej., alimentación saludable",4003-1117 / 1152,DR. GUSTAVO RICARDO BAILON,-34.6796386,-58.56023109999999
oficina,agencia,624,AG. GONZALEZ CATAN,BUENOS AIRES,,,GONZALEZ CATAN,JOSE LEON LARRE 367,JOSE LEON LARRE 367,1708,02202-421900,,,,-34.697202,-58.600566
oficina,agencia,625,AG. ISIDRO CASANOVA,BUENOS AIRES,,,ISIDRO CASANOVA,ASUNCION 5777,ASUNCION 5777,1765,"4625-5731, 4466-0717",,,,-34.701577,-58.58389
oficina,agencia,626,AG. TAPIALES,BUENOS AIRES,,,TAPIALES,BOULOGNE SUR MER 1508,BOULOGNE SUR MER 1508,1770,4442-1780,,,,-34.699707,-58.504218
oficina,agencia,627,AG. GREGORIO DE LAFERRERE,BUENOS AIRES,,,GREGORIO DE LAFERRERE,MURGIONDO 2939,MURGIONDO 2939,1757,4457-1673,,,,-34.749441,-58.583311
oficina,agencia,628,AG. RAMOS MEJIA,BUENOS AIRES,,,RAMOS MEJIA,AVDA. DE MAYO 1270,AVDA. DE MAYO 1270,1704,4464-7183 / 71807 4658 / 4409 44456-6237/1572 INT. 103,,,,-34.653015,-58.563291
oficina,agencia,629,AG. JUAN MANUEL DE ROSAS,BUENOS AIRES,,,VIRREY DEL PINO,AV. GRAL.M. DE ROSAS 17988,AV. GRAL.M. DE ROSAS 17988,1759,02202-436242,,,,-34.790704,-58.629702
oficina,ugl,0,,BUENOS AIRES,,,QUILMES,ANDRES BARANDA 1265,ANDRES BARANDA 1265,1878,"CONMUTADOR: 011 4350-7600, fax: 402 / 403",,,DRA. NORA CUESTAS,-34.7277678,-58.2676216
oficina,agencia,639,AG. QUILMES,BUENOS AIRES,,,QUILMES,LAVALLE 683,LAVALLE 683,1878,4253-6094 / 95 / 96 / 97 DIRECTO: 4257-3225 4254-9577,"Actividad acuática, gimnasia, memoria",,,-34.723361,-58.25621
oficina,agencia,640,AG. FLORENCIO VARELA,BUENOS AIRES,,,FLORENCIO VARELA,RIVADAVIA 78,RIVADAVIA 78,1888,4237-1085/1056,,,,-34.751451,-58.225096
oficina,agencia,641,AG. BERAZATEGUI,BUENOS AIRES,,,BERAZATEGUI,CALLE 146 NRO. 1253,CALLE 146 NRO. 1253,1884,"4256-3781, fax: 4226-0370",,,,-34.761499,-58.212844
oficina,agencia,642,AG. S. FRANCISCO SOLANO,BUENOS AIRES,,,SAN FRANCISCO SOLANO,CALLE 895 NRO. 4552 UF 3,CALLE 895 NRO. 4552 UF 3,1881,4212-1197,,,,-34.789083,-58.302408
oficina,agencia,645,AG. EL CRUCE DE F VARELA,BUENOS AIRES,,,FCIO. VARELA,HIPOLITO YRIGOYEN 1213,HIPOLITO YRIGOYEN 1213,1888,4255-4749 / 3961,,,,-34.785682,-58.271381
oficina,agencia,674,AG. HUDSON,BUENOS AIRES,,,BARRIO MARITIMO - HUDSON,CALLE 52 NRO. 3125,CALLE 52 NRO. 3125,1885,02229-443184,,,,-34.807179,-58.186426
oficina,agencia,682,AG. BOSQUES,BUENOS AIRES,,,BOSQUES,LUJAN 1420 (Calle 938),LUJAN 1420 (Calle 938),1889,4221-3712 / 5556,,,,-34.827169,-58.226537
oficina,ugl,0,,BUENOS AIRES,,,CHIVILCOY,Villarino 345,Villarino 345,6620,CONMUTADOR: 02346 43-9200,"Canto / coro, boletín, gimnasia, caminatas, paseoe salidas locales breves con fines recreativos, paricipación en torneo, juegos",Internos: 103 / 134,Dra. Marta Beatriz HACHA,-34.90218340000001,-60.02524039999999
oficina,agencia,647,AG. CHACABUCO,BUENOS AIRES,,,CHACABUCO,ZAPIOLA 177,ZAPIOLA 177,6740,02352-429090,,,,-34.641788,-60.46575
oficina,agencia,648,AG. 25 DE MAYO,BUENOS AIRES,,,25 DE MAYO,CALLE 30 NRO. 1004,CALLE 30 NRO. 1004,6660,02345-462173,"Gimnasia, danzas, yoga otras técnicas orientales",,,-35.429571,-60.17311
oficina,agencia,649,AG. CARMEN DE ARECO,BUENOS AIRES,,,CARMEN DE ARECO,SAN MARTIN 486,SAN MARTIN 486,6725,02273-442002,,,,-34.38097,-59.82277
oficina,agencia,650,AG. SUIPACHA,BUENOS AIRES,,,SUIPACHA,1RO. DE MAYO 250,1RO. DE MAYO 250,6612,02324-480073,,,,-34.773433,-59.685184
oficina,agencia,651,AG. NORBERTO DE LA RIESTRA,BUENOS AIRES,,,NORBERTO DE LA RIESTRA,AV.SARGENTO CABRAL 425,AV.SARGENTO CABRAL 425,6663,02343-440050,,,,-35.274196,-59.766036
oficina,agencia,652,AG. 9 DE JULIO,BUENOS AIRES,,,9 DE JULIO,AV. VEDIA 564,AV. VEDIA 564,6500,02317-432345 427065 / 66 423838 427177,Gimnasia,,,-35.447526,-60.884614
oficina,agencia,653,AG. BRAGADO,BUENOS AIRES,,,BRAGADO,BELGRANO 1238,BELGRANO 1238,6640,02342-430692,,,,-35.114871,-60.489846
oficina,agencia,654,AG. PEHUAJO,BUENOS AIRES,,,PEHUAJO,GUTIERREZ 575,GUTIERREZ 575,6450,02396-473919,"Gimnasia, caminatas, enfermedades endócrino metabólicas",,,-35.81101,-61.895753
oficina,agencia,655,AG. CARLOS CASARES,BUENOS AIRES,,,CARLOS CASARES,CECILIA BORJA 131,CECILIA BORJA 131,6530,02395-453110,,,,-35.623361,-61.362898
oficina,agencia,656,AG. CARLOS TEJEDOR,BUENOS AIRES,,,CARLOS TEJEDOR,SAN MARTIN Y GARRE,SAN MARTIN Y GARRE,6455,02357-420848,,,,-35.390677,-62.419235
oficina,agencia,657,AG. HENDERSON,BUENOS AIRES,,,HENDERSON,ESPAÑA Y MORENO,ESPAÑA Y MORENO,6465,02314-452029,,,,-36.300306,-61.718534
oficina,agencia,658,AG. FACUNDO QUIROGA,BUENOS AIRES,,,FACUNDO QUIROGA,AV. SAN LUIS 529,AV. SAN LUIS 529,6533,02317-491345,,,,-35.281389,-61.424561
oficina,agencia,659,AG. MOQUEHUA,BUENOS AIRES,,,MOQUEHUA,YAPEYU 238,YAPEYU 238,6625,02346-491288,,,,-35.092647,-59.774233
oficina,agencia,660,AG. ALBERTI,BUENOS AIRES,,,ALBERTI,VERGARA Y MORENO,VERGARA Y MORENO,6634,02346-470289,,,,-35.032729,-60.280386
oficina,agencia,661,AG. GENERAL O'BRIEN,BUENOS AIRES,,,GENERAL O'BRIEN,RIVADAVIA 395,RIVADAVIA 395,6646,02342-498434,,,,-34.908141,-60.760363
oficina,agencia,662,AG. TRES ALGARROBOS,BUENOS AIRES,,,TRES ALGARROBOS,BALBIANI Y 25 DE MAYO,BALBIANI Y 25 DE MAYO,6231,03388-492588,,,,-35.194836,-62.773136
oficina,agencia,663,AG. RIVADAVIA,BUENOS AIRES,,,RIVADAVIA,GENERAL RODRIGUEZ 71,GENERAL RODRIGUEZ 71,6237,02478- 452660,,,,-35.490586,-62.974455
oficina,agencia,664,AG. TRENQUE LAUQUEN,BUENOS AIRES,,,TRENQUE LAUQUEN,SAN MARTIN 80,SAN MARTIN 80,6400,02392-424627,,,,-35.968281,-62.735499
oficina,agencia,665,AG. ARRECIFES,BUENOS AIRES,,,ARRECIFES,DR. CARLOS MERLASSINO 700,DR. CARLOS MERLASSINO 700,2740,02478-452660,,,,-34.065494,-60.105522
oficina,agencia,666,AG. SALTO,BUENOS AIRES,,,SALTO,MORENO ESQ. SARMIENTO,MORENO ESQ. SARMIENTO,2741,02474-423271,,,,-34.292679,-60.252936
oficina,agencia,667,AG. CTAN. SARMIENTO,BUENOS AIRES,,,CAPITAN SARMIENTO,VICENTE L. Y PLANES 746,VICENTE L. Y PLANES 746,2752,02478-481778,,,,-34.169595,-59.789511
oficina,agencia,668,AG. SAN PEDRO,BUENOS AIRES,,,SAN PEDRO,AV. 3 DE FEBRERO 55,AV. 3 DE FEBRERO 55,2930,03329-424391 / 420541,,,,-33.680586,-59.667159
oficina,agencia,669,AG. SANTA LUCIA,BUENOS AIRES,,,SANTA LUCIA,SAN MARTIN 154,SAN MARTIN 154,2935,03329-491544,,,,-33.880713,-59.875814
oficina,ugl,0,,CATAMARCA,,,CATAMARCA,SAN MARTIN 680,SAN MARTIN 680,4700,"0383-4451061, fax: 0383-4430687",,int. 108,DR. SERGIO DANIEL ORELLANA BARRERA,-28.4693935,-65.7772383
oficina,agencia,468,AG. BELEN,CATAMARCA,,,BELEN,GRAL. ROCA 192,GRAL. ROCA 192,4750,03835-461525,"Artesanías / manualidades, danzas, gimnasia",,,-27.650005,-67.027123
oficina,agencia,469,AG. SANTA MARIA,CATAMARCA,,,SANTA MARIA,SAN MARTIN 380,SAN MARTIN 380,4139,03838-420355,,,,-26.698155,-66.048567
oficina,agencia,470,AG. TINOGASTA,CATAMARCA,,,TINOGASTA,COPIAPO 459,COPIAPO 459,5340,03837-420097,,,,-28.066603,-67.565882
oficina,agencia,471,AG. ANDALGALA,CATAMARCA,,,ANDALGALA,BARCENA 468,BARCENA 468,4740,03835-422032,,,,-27.58384,-66.316581
oficina,agencia,472,AG. RECREO,CATAMARCA,,,RECREO,RIVADAVIA 125,RIVADAVIA 125,5260,03832-427269,,,,-29.278276,-65.063703
oficina,agencia,473,AG. POMAN,CATAMARCA,,,POMAN,PTE. CASTILLO ESQ. OBISPO ESQUIU,PTE. CASTILLO ESQ. OBISPO ESQUIU,5315,03835-497063,,,,-28.39578,-66.218723
oficina,agencia,474,AG. VALLE VIEJO,CATAMARCA,,,VILLA DOLORES,PADRE ESQUIU 33,PADRE ESQUIU 33,4707,0383-4441569,,,,-28.466428,-65.770955
oficina,agencia,475,AG. PIEDRA BLANCA,CATAMARCA,,,SAN JOSE,LA CALLECITA RUTA 41 S/NRO.,LA CALLECITA RUTA 41 S/NRO.,4709,"0383-4492054, fax: 0383-3492054","Visitas domiciliarias, vejez y ciudadanía",,,-28.395761,-65.704284
oficina,agencia,476,AG. BANADO DE OVANTA,CATAMARCA,,,BANADO DE OVANTA,AVDA.NÉSTOR KIRCHNER S/Nº -RUTA NACIONAL 64,AVDA.NÉSTOR KIRCHNER S/Nº -RUTA NACIONAL 64,4723,383-154675123,,,,-28.104995,-65.318749
oficina,agencia,478,AG. CHUMBICHA,CATAMARCA,,,CHUMBICHA,BELGRANO ESQ CATAMARCA S/NRO.,BELGRANO ESQ CATAMARCA S/NRO.,4728,0383-4491251,,,,-28.852342,-66.235936
oficina,agencia,479,AG. FIAMBALA,CATAMARCA,,,FIAMBALA,DIEGO CARRIZO DE FRITES,DIEGO CARRIZO DE FRITES,5345,03837-496483 / 496280,,,,-27.690976,-67.619491
oficina,agencia,482,AG. LA MERCED,CATAMARCA,,,LA MERCED,MATIAS AREDES S/N,MATIAS AREDES S/N,4718,0383-4495213 (TEL. PARTICULAR),,,,-28.152947,-65.65954
oficina,agencia,483,AG. LA PUERTA,CATAMARCA,,,LA PUERTA,CALLE PRINCIPAL BARRIO EL TALAR,CALLE PRINCIPAL BARRIO EL TALAR,4711,,,,,-28.154602,-65.79298
oficina,agencia,484,AG. LA PUERTA DEL CORRAL QUEMADO,CATAMARCA,,,PUERTA DEL CORRAL QUEMADO,CALLE PRINCIPAL BARRIO SAN ROQUE,CALLE PRINCIPAL BARRIO SAN ROQUE,4751,,,,,-27.233333,-66.933333
oficina,ugl,0,,CORDOBA,,,CAPITAL,GENERAL PAZ 370,GENERAL PAZ 370,5000,"CONMUTADOR: 0351 413-1600, fax: 0351-4131663","Gimnasia, Caminatas, Alimentacion Saludable, Eventos, Controles Medicos en Salud, Festejos Locales, Intercambio Generacional, Historia y Tradiciones, Paseos salidas locales breves con fines recreativos, Rel. De Socio Sanitario Pob. B/Prog. Prev, Relev. Soc. Sanit. de Pob. Afil. en Gral, Reflexión, Derechos Ciudadanos en General, Conoc. y Utiliz. de los Serv. del INSSJyP, Conoc. Y particip. En Org. Que Defienden Derech. De Adult. May., Capac. y Transf. de Tec. en Lideraz. Comunit a Organiz, Vejez y Ciudadania, Yoga Otras Técnicas Orientales, Actividad Acuática, Juegos de Mesa, Prevención del Sedentarismo, Medio Ambiente, Encuentros Vivenciales, Coordinación, Salud Mental, Arte Culinario, Técnicas de Trabajo Corporal, Grupos Autoayuda, Artesanías / Manualidades, Alfabetización",0351-4131634 /35,LIC. FERNANDO GOMEZ ALZUARENA,-31.4109343,-64.18518689999999
oficina,agencia,43,AG. LA CALERA,CORDOBA,,,LA CALERA,GENARI 510 ESQ. OLCESSE,GENARI 510 ESQ. OLCESSE,5151,03543-460970,,,,-31.344731,-64.338305
oficina,agencia,44,AG. VILLA DOLORES,CORDOBA,,,VILLA DOLORES,JOSE MANUEL ESTRADA 138,JOSE MANUEL ESTRADA 138,5870,"0354-4420692, fax: 0354-4420692",,,,-31.94284,-65.192277
oficina,agencia,45,AG. DEAN FUNES,CORDOBA,,,DEAN FUNES,RAMON IRIBARNE 133,RAMON IRIBARNE 133,5200,03521-420420,,,,-30.421662,-64.352682
oficina,agencia,46,AG. MATIENZO,CORDOBA,,,BARRIO MATIENZO,FUERZA AEREA ARGENTINA 4800 ESQ.RICHARDSON,FUERZA AEREA ARGENTINA 4800 ESQ.RICHARDSON,5010,0351-4650194 / 4650029 / 46500112,,,,-31.432371,-64.243328
oficina,agencia,47,AG. VILLA LIBERTADOR,CORDOBA,,,BARRIO VILLA LIBERTADOR,LA FALDA 5434,LA FALDA 5434,5000,4351-4939916 / 4932150,,,,-31.47761,-64.212109
oficina,agencia,48,AG. VA. MARIA DEL RIO SECO,CORDOBA,,,VILLA DE MARIA DEL RIO SECO,RIVADAVIA esq. URUGUAY,RIVADAVIA esq. URUGUAY,5248,03522-422170,,,,-29.900931,-63.720753
oficina,agencia,49,AG. STA. ROSA DE RIO PRIMERO,CORDOBA,,,SANTA ROSA DE RIO PRIMERO,CORRIENTES 346,CORRIENTES 346,5133,03574-420086,"Juegos, Ropero comunitario, Gimnasia",,,-31.1473,-63.39838
oficina,agencia,50,AG. VA. DEL ROSARIO,CORDOBA,,,VILLA DEL ROSARIO,CATAMARCA 635,CATAMARCA 635,5963,0357-3422010,"Gimnasia, Alimentacion Saludable",,,-31.557218,-63.5339
oficina,agencia,51,AG. JESUS MARIA,CORDOBA,,,JESUS MARIA,DR. ANIBAL VIALE 826,DR. ANIBAL VIALE 826,5220,03525-420114 / 42610,Yoga Otras,,,-30.975953,-64.095851
oficina,agencia,52,AG. VILLA CARLOS PAZ,CORDOBA,,,VILLA CARLOS PAZ,SARGENTO CABRAL 126,SARGENTO CABRAL 126,5152,0354-1424199 / 430089,,,,-31.423248,-64.497579
oficina,agencia,53,AG. RIO CEBALLOS,CORDOBA,,,RIO CEBALLOS,Lestache esq. Serrano s/n°,Lestache esq. Serrano s/n°,5111,03543-451075 / 475735,Teatro,,,-31.165663,-64.32204
oficina,agencia,54,AG. UNQUILLO,CORDOBA,,,UNQUILLO,AV. SAN MARTIN ESQ. RIO NEGRO,AV. SAN MARTIN ESQ. RIO NEGRO,5106,03543-483094 / 485036,"Gimnasia, Alimentacion Saludable",,,-31.240701,-64.308978
oficina,agencia,55,AG. ALTA GRACIA,CORDOBA,,,ALTA GRACIA,Intendente Martinez 141,Intendente Martinez 141,5186,03547-422483,"Gimnasia, Juegos, Paseos salidas locales breves con fines recreativos, Yoga Otras Técnicas Orientales, Alimentacion Saludable, Artesanias / Manualidades",,,-31.653929,-64.430616
oficina,agencia,56,AG. MINA CLAVERO,CORDOBA,,,CURA BROCHERO,25 DE MAYO 146,25 DE MAYO 146,5891,03544-470282,"Caminatas, Deportes, Alimentacion Saludable, Prevención del Sedentarismo, Gimnasia, Controles Médicos en Salud, Enfermedades Cardiovasculares",,,-31.703927,-65.019593
oficina,agencia,57,AG. SAN JOSE DE LA DORMIDA,CORDOBA,,,SAN JOSE DE LA DORMIDA,AV. SAN MARTIN 168,AV. SAN MARTIN 168,5244,0352-1497223,,,,-30.355842,-63.945715
oficina,agencia,58,AG. RIO SEGUNDO,CORDOBA,,,RIO SEGUNDO,LEANDRO N. ALEM 1951,LEANDRO N. ALEM 1951,5960,03572-423532,,,,-31.651326,-63.912504
oficina,agencia,59,AG. PANAMERICANO,CORDOBA,,,BARRIO PANAMERICANO,ROBERTO J. PAIRO 4662,ROBERTO J. PAIRO 4662,5000,0351-492-8121,,,,-31.352098,-64.176189
oficina,agencia,60,AG. SAN VICENTE,CORDOBA,,,BARRIO SAN VICENTE,AV. SAN JERONIMO 2933,AV. SAN JERONIMO 2933,5200,0351-4556437/4567624/4569036,,,,-31.42328,-64.146404
oficina,agencia,61,AG. BELL VILLE,CORDOBA,,,BELL VILLE,SARMIENTO 21,SARMIENTO 21,2550,03537-425601 / 425174 / 425008,"Yoga Otras Técnicas Orientales, Paseos salidas locales breves con fines recreativos, Reflexión, Alimentacion Saludable, Prevención del Sedentarismo, Controles Médicos en Salud, Técnicas de Trabajo Corporal, Enfermedades Cardiovasculares, Gimnasia, Canto y Coro, Memoria, Danzas, Festejos Locales, Artes Plasticas, Caminatas, Juegos, Literatura",,,-32.629924,-62.691125
oficina,agencia,62,AG. MARCOS JUAREZ,CORDOBA,,,MARCOS JUAREZ,HIPOLITO YRIGOYEN 942,HIPOLITO YRIGOYEN 942,2580,03472-427160 / 427160,,,,-32.693873,-62.104236
oficina,agencia,63,AG. CORRAL DE BUSTOS,CORDOBA,,,CORRAL DE BUSTOS,AV. SANTA FE 319,AV. SANTA FE 319,2645,0346-8421404,,,,-33.282683,-62.185285
oficina,agencia,64,AG. LABORDE,CORDOBA,,,LABORDE,VELEZ SARSFIED 79,VELEZ SARSFIED 79,2567,03537-460497,,,,-33.153505,-62.855065
oficina,agencia,65,AG. CRUZ ALTA,CORDOBA,,,CRUZ ALTA,BELGRANO 1269,BELGRANO 1269,2189,0346-7421521,,,,-33.008268,-61.810931
oficina,agencia,66,AG. JUSTINIANO POSSE,CORDOBA,,,JUSTINIANO POSSE,9 DE JULIO 913,9 DE JULIO 913,2553,0353-4472222,,,,-32.88238,-62.680331
oficina,agencia,67,AG. NOETINGER,CORDOBA,,,NOETINGER,INT.FERNANDO MORERO 271,INT.FERNANDO MORERO 271,2563,0347-2470172,,,,-32.362273,-62.310877
oficina,agencia,68,AG. SAN FRANCISCO,CORDOBA,,,SAN FRANCISCO,ITURRASPE 2350,ITURRASPE 2350,2400,"03564-423718/1235, fax: 03564-41235","Gimnasia, Alimentacion Saludable, Todas las Temáticas, Enfermedades Endocrino metabolicas, Caminatas, Artes Plasticas, Artesanias / Manualidades, Paseos salidas locales breves con fines recreativos",,,-31.42707,-62.092048
oficina,agencia,69,AG. MORTEROS,CORDOBA,,,MORTEROS,BOULEVARD ILLIA 696,BOULEVARD ILLIA 696,6910,0356-2422859,,,,-30.708966,-62.004225
oficina,agencia,70,AG. LAS VARILLAS,CORDOBA,,,LAS VARILLAS,9 DE JULIO 72,9 DE JULIO 72,5940,0353-3420342,,,,-31.869649,-62.719924
oficina,agencia,71,AG. ARROYITO,CORDOBA,,,ARROYITO,VELEZ SARFIELD 943,VELEZ SARFIELD 943,2434,0357-6421070,,,,-31.414344,-63.050673
oficina,agencia,72,AG. BALNEARIA,CORDOBA,,,BALNEARIA,BV. BELGRANO 47,BV. BELGRANO 47,5141,0356-3420183,"Yoga Otras Técnicas Orientales , Alimentacion Saludable",,,-31.011932,-62665594
oficina,agencia,73,AG. PORTENA,CORDOBA,,,PORTEÑA,RIVADAVIA 692,RIVADAVIA 692,2415,0356-4450039,,,,-31.013219,-62.062075
oficina,agencia,75,AG. VILLA MARIA,CORDOBA,,,VILLA MARIA,LISANDRO DE LA TORRE 345,LISANDRO DE LA TORRE 345,5900,"0353-452-6773/0195/0926, fax: 0353-452-6773","Canto y Coro, Alfabetización, Juegos, Festejos Locales, Gimnasia, Danzas, Artesanias / Manualidades, Enfermedades Cardiovasculares, Enfermedades Endocrino metabolicas, Computación, Periodismo, Formación de Ag. Com. p/detecc. Seg. Acomp. Y Deriv. De Af. Bajo Prog., Artes Plasticas, Técnicas de Trabajo Corpora, Alimentacion Saludable, Memoria, Arte Culinario, Grupo Autoayuda, Música, Yoga Otras Técnicas Orientales, Teatro, Relev. Soc. Sanit. de Pob. b/Prog. Focaliz, Derechos Ciudadanos en General",,,-32.403426,-63.246964
oficina,agencia,76,AG. LA CARLOTA,CORDOBA,,,LA CARLOTA,LEANDRO N. ALEM 197,LEANDRO N. ALEM 197,2670,0358-4420323,,,,-33.418619,-63.293366
oficina,agencia,77,AG. GRAL. CABRERA,CORDOBA,,,GENERAL CABRERA,RIOJA 934,RIOJA 934,5809,0358-4930157,,,,-32.812526,-63.870184
oficina,agencia,78,AG. OLIVA,CORDOBA,,,OLIVA,COLON 170,COLON 170,5980,03532-420047 / 421700,,,,-32.038876,-63.570589
oficina,agencia,79,AG. UCACHA,CORDOBA,,,UCACHA,MISIONES 159,MISIONES 159,2677,0353-4900223,,,,-33.032377,-63.507164
oficina,agencia,80,AG. COSQUIN,CORDOBA,,,COSQUIN,PTE. PERON 778,PTE. PERON 778,5166,03541-451919 / 452003 / 452003,"Alimentación Saludable, Controles Médicos en Salud, Enfermedades Endocrino metabolicas, Artesanias / Manualidades, Danzas, Gimnasia, Yoga Otras Técnicas Orientales",,,-31.241646,-64.462502
oficina,agencia,81,AG. CRUZ DEL EJE,CORDOBA,,,CRUZ DEL EJE,HIPOLITO IRIGOYEN 160,HIPOLITO IRIGOYEN 160,5280,03549-423393 / 421055,"Artesanías / Manualidades, Alimentacion Saludable, Gimnasia, Enfermedades Cardiovasculares, Enfermedades Endocrino metabolicas, Yoga Otras Técnicas Orientales, Controles Médicos en Salud",,,-30.720329,-64.810073
oficina,agencia,82,AG. LA FALDA,CORDOBA,,,LA FALDA,AV. ESPAÑA 263,AV. ESPAÑA 263,5172,03548-421181 / 426371 / 427271,,,,-31.086568,-64.483573
oficina,agencia,83,AG. CAPILLA DEL MONTE,CORDOBA,,,CAPILLA DEL MONTE,MITRE 682,MITRE 682,5184,03548-481389,,,,-30.854085,-64.526017
oficina,agencia,84,AG. LA CUMBRE,CORDOBA,,,LA CUMBRE,LOPEZ Y PLANES 345,LOPEZ Y PLANES 345,5178,0354-8451940,"Gimnasia, Alimentacion Saludable",,,-30.981288,-64.490955
oficina,agencia,85,AG. RIO TERCERO,CORDOBA,,,RIO TERCERO,MARTIN MAROTTO ESQ. URUGUAY,MARTIN MAROTTO ESQ. URUGUAY,5850,0357-1422235 / 1431798,,,,-32.177211,-64.105378
oficina,agencia,86,AG. STA. ROSA DE CALAMUCHITA,CORDOBA,,,STA. ROSA DE CALAMUCHITA,AV. JOSE MARIA GOMEZ 571,AV. JOSE MARIA GOMEZ 571,5196,0354-6320365,"Gimnasia, Yoga Otras Técnicas Orientales, Alimentacion Saludable",,,-32.067338,-64.549724
oficina,agencia,87,AG. HERNANDO,CORDOBA,,,HERNANDO,MATHEU 166,MATHEU 166,5929,0353-496-1492,,,,-32.426195,-63.730452
oficina,agencia,685,BOCA DE ATENCION HOSPITAL DE CLINICAS,CORDOBA,,,CORDOBA,SANTA ROSA 1564,SANTA ROSA 1564,5000,0351-4864645,,,,-31.406231,-64.20432
oficina,ugl,0,,CORDOBA,,,RIO CUARTO,ALVEAR 842,ALVEAR 842,5800,"0358-4672210 - 4672211 AL 21, fax: 406 /407","Memoria, artesanías / manualidades, yoga otras técncias orientales, gimnasia, arte culinario, canto / coro, danzas",,SRA. VILMA CATALINA CHIAPPELLO,-33.124259,-64.3506553
oficina,agencia,631,AG. LABOULAYE,CORDOBA,,,LABOULAYE,TOMAS SCOTT 18,TOMAS SCOTT 18,6120,03385-426422,,,,-34.130226,-63.390967
oficina,agencia,632,AG. HUINCA RENANCO,CORDOBA,,,HUINCA RENANCO,GUEMES 84,GUEMES 84,6270,02336-442066,,,,-34.84195,-64.373771
oficina,agencia,633,AG. VICUNA MACKENA,CORDOBA,,,VICUNA MACKENNA,FRANCISCO TORRES 579,FRANCISCO TORRES 579,6140,03583-420647,,,,-33.913965,-64.38965
oficina,agencia,634,AG. CORONEL MOLDES,CORDOBA,,,CORONEL MOLDES,9 DE JULIO 548,9 DE JULIO 548,5847,03582-481800,,,,-33.625019,-64.598887
oficina,agencia,635,AG. CANALS,CORDOBA,,,CANALS,BUENOS AIRES 202,BUENOS AIRES 202,2650,03463-420669,Artesanías / manualidades,,,-33.561888,-62.881583
oficina,agencia,636,AG. SAMPACHO,CORDOBA,,,SAMPACHO,19 DE NOVIEMBRE ESQUINA LAMADRID,19 DE NOVIEMBRE ESQUINA LAMADRID,5829,03582-420500,,,,-33.385049,-64.72141
oficina,agencia,637,AG. ELENA,CORDOBA,,,ELENA,SAN JUAN Y CONCEJAL SERENA,SAN JUAN Y CONCEJAL SERENA,5815,0358-4881143,,,,-32.572096,-64.39461
oficina,ugl,0,,CORRIENTES,,,CORRIENTES,JUJUY 1140,JUJUY 1140,3400,"CONMUTADOR: 0379 447-6600, fax: 0379-4424491",Gimnasia,0379-4437913 /4423595,Dr. LUCIO CORNEJO,-27.4711065,-58.82825519999999
oficina,agencia,22,AG. GOYA,CORRIENTES,,,GOYA,COLON 1587,COLON 1587,3450,0377-7421004/433655,,,,-29.151768,-59.266287
oficina,agencia,23,AG. PASO DE LOS LIBRES,CORRIENTES,,,PASO DE LOS LIBRES,BME. MITRE 1069,BME. MITRE 1069,3230,0377-2422384,,,,-29.713793,-57.087153
oficina,agencia,24,AG. SANTO TOME,CORRIENTES,,,SANTO TOME,BARTOLOME MITRE 768,BARTOLOME MITRE 768,3340,0375-6420047,,,,-28.545926,-56.033134
oficina,agencia,25,AG. MONTE CASEROS,CORRIENTES,,,MONTE CASEROS,ESPANA 360,ESPANA 360,3320,0377-5422695,,,,-30.249962,-57.633345
oficina,agencia,26,AG. MERCEDES,CORRIENTES,,,MERCEDES,J. A. FERREYRA Y DR. RIVAS,J. A. FERREYRA Y DR. RIVAS,3470,03773-420288,,,,-29.180248,-58.0812
oficina,agencia,27,AG. CURUZU CUATIA,CORRIENTES,,,CURUZU CUATIA,CASTILLO 1086,CASTILLO 1086,3460,03774-422955,,,,-29.79142,-58.049877
oficina,agencia,28,AG. BELLA VISTA,CORRIENTES,,,BELLA VISTA,SALTA 1019,SALTA 1019,3432,03777-451626/451413,,,,-28.507655,-59.044869
oficina,agencia,29,AG. GOB. VIRASORO,CORRIENTES,,,VIRASORO,LAVALLE Y MOCITO ACUÑA,LAVALLE Y MOCITO ACUÑA,3342,0375-6481046,,,,-29.176258,-56.643498
oficina,agencia,30,AG. ESQUINA,CORRIENTES,,,ESQUINA,25 DE MAYO 640,25 DE MAYO 640,3196,"0377-7460192, fax: 0377-7460192",,,,-30.017437,-59.532126
oficina,agencia,31,AG. ITUZAINGO,CORRIENTES,,,ITUZAINGO,CALLE BELGRANO 1628,CALLE BELGRANO 1628,3302,"0378-6420196, fax: 0378-6420196",,,,-27.58635,-56.686721
oficina,agencia,32,AG. GENERAL PAZ,CORRIENTES,,,GENERAL PAZ,BLANCO VEGA Y GORDIOLA NIELLA,BLANCO VEGA Y GORDIOLA NIELLA,3407,0378-1420134 / 03783-652751,,,,-27.752025,-57.621925
oficina,agencia,33,AG. SALADAS,CORRIENTES,,,SALADAS,ALVEAR 1107,ALVEAR 1107,3420,"03782 -421769, fax: 03782 -421769",,,,-28.25489,-58.623016
oficina,agencia,34,AG. SAN COSME,CORRIENTES,,,SAN COSME,MIGUEL DE LOS RIOS E/S. J. BAUTISTA Y CORRIENTES,MIGUEL DE LOS RIOS E/S. J. BAUTISTA Y CORRIENTES,3412,0378-3496093,,,,-27.509375,-58.55572
oficina,agencia,35,AG. SAUCE,CORRIENTES,,,SAUCE,GRAL. PAZ Y BME. MITRE,GRAL. PAZ Y BME. MITRE,3463,"0377-448-0066, fax: 0377-448-0066",,,,-30.086103,-58.786819
oficina,agencia,36,AG. LA CRUZ,CORRIENTES,,,LA CRUZ,UNION 1021,UNION 1021,3346,0377-2491131,,,,-28.182948,-56.650343
oficina,agencia,37,AG. ALVEAR,CORRIENTES,,,ALVEAR,ISACO ABITBOL 1355,ISACO ABITBOL 1355,3344,0377-2470519,,,,-29.098683,-56.553479
oficina,agencia,38,AG. ITATI,CORRIENTES,,,ITATI,DESIDERIO SOSA 755,DESIDERIO SOSA 755,3414,0378-3493190,,,,-27.269851,-58.243743
oficina,agencia,39,AG. MBURUCUYA,CORRIENTES,,,MBURUCUYA,BELGRANO 834,BELGRANO 834,3427,0378-2498004 / 509982,,,,-28.045281,-58.226345
oficina,agencia,40,AG. MOCORETA,CORRIENTES,,,MOCORETA,25 DE MAYO 245,25 DE MAYO 245,3226,03775-498003,,,,-30.618635,-57.974303
oficina,agencia,41,AG. SANTA ROSA,CORRIENTES,,,SANTA ROSA,BELGRANO 66,BELGRANO 66,3421,03782-494397,,,,-28.264775,-58.120472
oficina,ugl,0,,CHACO,,,RESISTENCIA,AV. 9 DE JULIO 155,AV. 9 DE JULIO 155,3500,"0362-4421915 /4444219 /4444220 /4444221 /4433171, fax: 0362-4444221","Computación, danzas, yoga otras actividades orientales, intercambio, generacional, nuevas org. aniz. familiares y rol del adulto mayor, narración, vejez y ciudadanía",int. 122,CDRA. CRISTINA NIDIA ABOITIZ,-27.452485,-58.985155
oficina,agencia,276,AG. PTE. ROQUE SAENZ PENA,CHACO,,,PTE. ROQUE SAENZ PEÑA,LOPEZ Y PLANES 519,LOPEZ Y PLANES 519,3700,0364-4422452,"Danzas, gimnasia",,,-26.78274,-60.438906
oficina,agencia,277,AG. VILLA ANGELA,CHACO,,,VILLA ANGELA,9 DE JULIO ESQ. LAVALLE,9 DE JULIO ESQ. LAVALLE,3540,03735-421101,,,,-27.577126,-60.716761
oficina,agencia,278,AG. GRAL. SAN MARTIN,CHACO,,,GRAL. SAN MARTIN,12 DE OCTUBRE 660,12 DE OCTUBRE 660,3509,03725-420451,,,,-26.539855,-59.347336
oficina,agencia,279,AG. LAS BRENAS,CHACO,,,LAS BREÑAS,GRAL. JONES 367,GRAL. JONES 367,3722,03731-460193 RPV.7170 / Internos: 101/102 y 110,"Yoga otras actividades orientales, gimnasia",,,-27.085493,-61.085801
oficina,agencia,280,AG. CHARATA,CHACO,,,CHARATA,25 DE MAYO 857,25 DE MAYO 857,3730,03731-420132,,,,-27.21277,-61.187632
oficina,agencia,281,AG. CASTELLI,CHACO,,,JUAN JOSE CASTELLI,SARMIENTO 940,SARMIENTO 940,3705,0364-4471360,,,,-25.942455,-60.624375
oficina,agencia,282,AG. BARRANQUERAS,CHACO,,,BARRANQUERAS,LAPRIDA 5440,LAPRIDA 5440,3503,0362-4415156,,,,-27.487487,-58.930603
oficina,agencia,283,AG. LAS PALMAS,CHACO,,,LAS PALMAS,SAN MARTIN Y REMEDIOS DE ESCALADA,SAN MARTIN Y REMEDIOS DE ESCALADA,3518,0362-4470277,,,,-27.052017,-58.679194
oficina,agencia,284,AG. TRES ISLETAS,CHACO,,,TRES ISLETAS,ALBERDI 602,ALBERDI 602,3703,0364-4461246,,,,-26.338576,-60.43117
oficina,agencia,285,AG. GENERAL PINEDO,CHACO,,,GRAL. PINEDO,RIVADAVIA 357,RIVADAVIA 357,3732,"03731-480127, fax: 0373-1480127",,,,-27.3245,-61.280973
oficina,agencia,286,AG. SANTA SYLVINA,CHACO,,,SANTA SILVINA,GRANADERO BAIGORRIA S/NRO.,GRANADERO BAIGORRIA S/NRO.,3541,03735-494473,,,,-27.828412,-61.133258
oficina,agencia,287,AG. SAN BERNARDO,CHACO,,,SAN BERNARDO,MORENO ESQ. MAYPU,MORENO ESQ. MAYPU,3701,03735-496453,,,,-27.286443,-60.712559
oficina,agencia,288,AG. CORZUELA,CHACO,,,CORZUELA,RIVADAVIA 120,RIVADAVIA 120,3718,03731-470406,,,,-26.95,-60.983333
oficina,agencia,289,AG. MACHAGAI,CHACO,,,MACHAGAI,URUGUAY 267,URUGUAY 267,3534,03734-471325,,,,-26.926049,-60.048831
oficina,agencia,290,AG. PAMPA DEL INFIERNO,CHACO,,,PAMPA DEL INFIERNO,SAN MARTIN 551,SAN MARTIN 551,3708,0364-4497575 (RPV.7400),,,,-26.503299,-61.175916
oficina,agencia,291,AG. VILLA BERTHET,CHACO,,,VILLA BERTHET,MITRE S/NRO.,MITRE S/NRO.,3545,03735-497699,,,,-27.289074,-60.412924
oficina,agencia,292,AG. TACO POZO,CHACO,,,TACO POZO,MORENO S/NRO.,MORENO S/NRO.,3714,03877-495105,,,,-25.615641,-63.268211
oficina,agencia,293,AG. PAMPA DEL INDIO,CHACO,,,PAMPA DEL INDIO,BOBUENA VALDEZ 520,BOBUENA VALDEZ 520,3531,0375-494285,,,,-26.048185,-59.942143
oficina,agencia,676,AG. QUITILIPI,CHACO,,,QUITILIPI,AV. SAN MARTIN 740,AV. SAN MARTIN 740,3530,0364-4480651,,,,-26.870708,-60.215306
oficina,ugl,0,,CHUBUT,,,COMODORO RIVADAVIA,SAAVEDRA 935,SAAVEDRA 935,9000,"0297-4471506 / 4472941 / 4444723 / 4444829, fax: 0297-4472470",,,SR. ANDRES ROCA,-45.8606623,-67.4957469
oficina,agencia,354,AG. ESQUEL,CHUBUT,,,ESQUEL,9 DE JULIO 725,9 DE JULIO 725,9200,"02945-452392 / 454718, fax: 0294-5454718",,,,-42.915358,-71.324576
oficina,agencia,355,AG. TRELEW,CHUBUT,,,TRELEW,PARAGUAY 88,PARAGUAY 88,9100,0280-4422637 / 4421986 / 4422040 / 4422432 / 4422251/ 4430376,,,,-43.255534,-65.303746
oficina,agencia,356,AG. PUERTO MADRYN,CHUBUT,,,PUERTO MADRYN,MARCOS A. ZAR 445,MARCOS A. ZAR 445,9210,"0280-4451169 / 4457746, fax: 0280-4453865",,,,-42.769431,-65.036126
oficina,agencia,357,AG. SARMIENTO,CHUBUT,,,SARMIENTO,PERITO MORENO 351,PERITO MORENO 351,9020,0297-4893349,,,,-45.584251,-69.070709
oficina,agencia,358,AG. EL MAITEN,CHUBUT,,,EL MAITEN,RIVADAVIA 772,RIVADAVIA 772,9210,02945-495110,,,,-42.050185,-71.168418
oficina,agencia,359,AG. GAIMAN,CHUBUT,,,GAIMAN,HIPOLITO YRIGOYEN 152,HIPOLITO YRIGOYEN 152,9105,02965-491208,,,,-43.288827,-65.492127
oficina,agencia,360,AG. RAWSON,CHUBUT,,,RAWSON,PASAJE GARZON 74,PASAJE GARZON 74,9103,02965-481331,,,,-43.297089,-65.101851
oficina,agencia,361,AG. RIO MAYO,CHUBUT,,,RIO MAYO,BELGRANO S/N,BELGRANO S/N,9030,0290-3420103,,,,-45.688165,-70.258863
oficina,agencia,362,AG. RIO SENGUER,CHUBUT,,,RIO SENGUER,HOSPITAL RURAL SAN JUAN BOSCO,HOSPITAL RURAL SAN JUAN BOSCO,9033,02945-497007,,,,-45.04355,-70.817706
oficina,agencia,363,AG. GOB. COSTA,CHUBUT,,,GOBERNADOR COSTA,JULIO A. ROCA Y JOSE AGUADO,JULIO A. ROCA Y JOSE AGUADO,9223,02945-491006,,,,-44.050583,-70.598001
oficina,agencia,364,AG. DOLAVON,CHUBUT,,,DOLAVON,25 DE MAYO Y MAIPU NORTE,25 DE MAYO Y MAIPU NORTE,9107,02965-492074,,,,-43.308379,-65.706747
oficina,agencia,365,AG. DON BOSCO,CHUBUT,,,COMODORO RIVADAVIA,KM 8 BARRIO PARQUE CASA 112,KM 8 BARRIO PARQUE CASA 112,9003,0297-4535214,,,,-45.795566,-67.423314
oficina,agencia,366,AG. TREVELIN,CHUBUT,,,TREVELIN,SAN MARTIN 719,SAN MARTIN 719,9203,02945-480080,,,,-43.072689,-71.460745
oficina,agencia,684,BOCA DE ATENCION EL HOYO,CHUBUT,,,EL HOYO DE EPUYEN,CALLE LOS GUINDOS Y LOS NOGALES,CALLE LOS GUINDOS Y LOS NOGALES,9211,02944-471065,,,,-42.061529,-71.519551
oficina,ugl,0,,ENTRE RIOS,,,PARANA,VENEZUELA 100,VENEZUELA 100,3100,"0343-4220030 / 4230137 / 4231667 / 4230496 / 4233936 / 4223638 / 4312882/ 4223619, fax: 0343-4231667","Artesanías / manualidades, peluquería, caminatas, danzas, actividad acuática, yoga otras técnicas orientales, idiomas",0343-431 2882,SR. CARLOS MARTIN ALONSO,-31.7345119,-60.5328157
oficina,agencia,299,AG. NOGOYA,ENTRE RIOS,,,NOGOYA,CENTENARIO 1090,CENTENARIO 1090,3150,03435-421146,,,,-32.399241,-59.787269
oficina,agencia,300,AG. GUALEGUAY,ENTRE RIOS,,,GUALEGUAY,FEDERACION 21,FEDERACION 21,2840,"03444-423012, fax: 0344-4423012","Gimnasia, enfermedades endócrinometabólicas, alimentación saludable, yoga otras técnicas orientales, movimiento",,,-33.149912,-59.312453
oficina,agencia,301,AG. LA PAZ,ENTRE RIOS,,,LA PAZ,ECHAGÜE 985,ECHAGÜE 985,3190,"03437-421659, fax: 0343-7421659",,,,-30.741596,-59.645015
oficina,agencia,302,AG. ROSARIO DEL TALA,ENTRE RIOS,,,ROSARIO DEL TALA,SAENZ PEÑA 454,SAENZ PEÑA 454,3174,03445-421218,,,,-32.302514,-59.141865
oficina,agencia,303,AG. VICTORIA,ENTRE RIOS,,,VICTORIA,ESPANA 261,ESPANA 261,3153,03436-421216,,,,-32.624665,-60.152725
oficina,agencia,304,AG. MACIA,ENTRE RIOS,,,MACIA,ELIAS LOIBER 20,ELIAS LOIBER 20,3177,03445-461703,,,,-32.173651,-59.401238
oficina,agencia,305,AG. SANTA ELENA,ENTRE RIOS,,,SANTA ELENA,PRIMER MAESTRO 298,PRIMER MAESTRO 298,3192,03437-481868,,,,-30.947856,-59.78331
oficina,agencia,306,AG. DIAMANTE,ENTRE RIOS,,,DIAMANTE,COLON 447,COLON 447,3105,0343-4983044,,,,-32.061883,-60.638702
oficina,agencia,307,AG. HERNANDARIAS,ENTRE RIOS,,,HERNANDARIAS,TUCUMAN 368,TUCUMAN 368,3127,0343-4960241,,,,-31.230894,-59.984844
oficina,agencia,308,AG. GENERAL GALARZA,ENTRE RIOS,,,GENERAL GALARZA,AV. RAMIREZ S/NRO.,AV. RAMIREZ S/NRO.,2843,03444-481085,,,,-32.720143,-59.394672
oficina,agencia,309,AG. LUCAS GONZALEZ,ENTRE RIOS,,,LUCAS GONZALEZ,SUPREMO ENTRERRIANO 298,SUPREMO ENTRERRIANO 298,3158,03435-480307,,,,-32.3846,-59.528418
oficina,agencia,311,AG. MARIA GRANDE,ENTRE RIOS,,,MARIA GRANDE,URQUIZA SIN NUMERO,URQUIZA SIN NUMERO,3133,0343-4940707,,,,-31.662769,-59.909159
oficina,agencia,312,AG. CRESPO,ENTRE RIOS,,,CRESPO,ESTRADA 1322,ESTRADA 1322,3116,0343- 495 0444,,,,-32.031327,-60.305893
oficina,agencia,314,AG. CERRITO,ENTRE RIOS,,,CERRITO,DIAGONAL INDUSTRIA 245,DIAGONAL INDUSTRIA 245,3122,03434-890704,,,,-31.583763,-60.073078
oficina,agencia,690,AG. HASENKAMP,ENTRE RIOS,,,HASENKAMP,RAMIREZ 385,RAMIREZ 385,3134,0343-4930592,,,,-31.51188,-59.834014
oficina,ugl,0,,ENTRE RIOS,,,CONCORDIA,TUCUMAN 67,TUCUMAN 67,3200,"0345-4218209 / 4279 422-6200 / 6201 / 6202, fax: 0345-4214279","Gimnasia, caminatas, deportes, técnicas de trabajo corporal, reflexión, memoria, historia y tradiciones, canto / coro, fotografía, encuentros vivenciales, relev.soc.sanit. de pob. afil. en gral, artesanías / manualidades, danzas, arte culinario, voluntariado, alimentación saludable, salud mental, festejos locales, intercambio generacional, artes plásticas, yoga otras técnicas orientales, estimulación del movimiento, contención del afilifado con padecimientos psiquicos, enfermedades cardiovasculares",0345-4212426,PROF. LEANDRO TRUPIANO,-31.3863251,-58.0148761
oficina,agencia,606,AG. GUALEGUAYCHU,ENTRE RIOS,,,GUALEGUAYCHU,AV. ROCAMORA 202,AV. ROCAMORA 202,2820,03446-426043 / 433389 / 433164,,,,-33.011794,-58.521599
oficina,agencia,607,AG. CONCEP. DEL URUGUAY,ENTRE RIOS,,,CONCEPCION DEL URUGUAY,SAN MARTIN 547,SAN MARTIN 547,3260,03442-425575 / 425719,"Gimnasia, Yoga otras técnicas orientales",,,-32.484841,-58.229495
oficina,agencia,608,AG. COLON,ENTRE RIOS,,,COLON,URQUIZA 308,URQUIZA 308,3280,03447-422185 / 423963,,,,-32.222205,-58.138407
oficina,agencia,609,AG. FEDERAL,ENTRE RIOS,,,FEDERAL,BELGRANO E IRIGOYEN,BELGRANO E IRIGOYEN,3180,03454-421442,,,,-30.954315,-58.780056
oficina,agencia,610,AG. CHAJARI,ENTRE RIOS,,,CHAJARI,SAN MARTIN 1038,SAN MARTIN 1038,3228,03456-420065,,,,-30.761217,-57.979771
oficina,agencia,611,AG. VILLAGUAY,ENTRE RIOS,,,VILLAGUAY,COLON Y CASTELLI,COLON Y CASTELLI,3240,03445-422326,,,,-31.864565,-59.024339
oficina,agencia,612,AG. VILLA ELISA,ENTRE RIOS,,,VILLA ELISA,SAN MARTIN 1188,SAN MARTIN 1188,3265,03447-480264,Yoga otras técnicas orientales,,,-32.165677,-58.401543
oficina,agencia,613,AG. SAN JOSE,ENTRE RIOS,,,SAN JOSE,MORENO 1432,MORENO 1432,3283,03447-470010,,,,-32.217267,-58.21965
oficina,agencia,614,AG. SAN JOSE DE FELICIANO,ENTRE RIOS,,,SAN JOSE DE FELICIANO,RIVADAVIA 286,RIVADAVIA 286,3187,03458-420210,,,,-30.383205,-58.752075
oficina,agencia,615,AG. SAN SALVADOR,ENTRE RIOS,,,SAN SALVADOR,RAMIREZ 74,RAMIREZ 74,3218,0345-4910493,,,,-31.623348,-58.506085
oficina,agencia,616,AG. URDINARRAIN,ENTRE RIOS,,,URDINARRAIN,AVDA. LIBERTAD 475,AVDA. LIBERTAD 475,2826,03446-480690,,,,-32.688076,-58.887498
oficina,agencia,617,AG. LARROQUE,ENTRE RIOS,,,LARROQUE,JOSE VIRUE 235,JOSE VIRUE 235,2854,03446-460347,,,,-33.037234,-59.001224
oficina,agencia,618,AG. FEDERACION,ENTRE RIOS,,,FEDERACION,AVDA. ENTRE RIOS 27,AVDA. ENTRE RIOS 27,3286,03456-482850,,,,-30.985556,-57.92044
oficina,agencia,619,AG. BASAVILBASO,ENTRE RIOS,,,BASAVILBASO,JUAN D. PERON 371,JUAN D. PERON 371,3170,03445-482207,,,,-32.370538,-58.875396
oficina,agencia,620,AG. SAN JAIME DE LA FRONTERA,ENTRE RIOS,,,SAN JAIME DE LA FRONTERA,RCA. ARGENTINA Y CUCHILLA DE MONTIEL,RCA. ARGENTINA Y CUCHILLA DE MONTIEL,3185,03458-480473,,,,-30.339843,-58.306829
oficina,agencia,621,AG. GENERAL CAMPOS,ENTRE RIOS,,,GENERAL CAMPOS,CONCEPCION DEL URUGUAY Y 25 DE MAYO,CONCEPCION DEL URUGUAY Y 25 DE MAYO,3216,0345-4901664,,,,-31.524136,-58.405169
oficina,agencia,692,AG. VILLA PARANACITO,ENTRE RIOS,,,VILLA PARANACITO,AV. ENTRE RIOS 265,AV. ENTRE RIOS 265,2823,03446-495383,,,,-33.71588,-58.659571
oficina,ugl,0,,FORMOSA,,,FORMOSA,MORENO 1193,MORENO 1193,3600,"0370-4436105 / 4293333 / 4434617 / 4434068 / 4434357 / 4433717, fax: 0370-4423818","Canto / coro, Literatura, teatro, alimentación saludable, gimnasia, yoga otras técnicas orientales, caminatas, danzas, relev.de soc. sanit. pob. bajo prog. prev., controles médicos en salud",0370-4423818,DR. JOSE VICTOR FERNANDEZ,-26.1871325,-58.16588909999999
oficina,agencia,458,AG. CLORINDA,FORMOSA,,,CLORINDA,AV. SAN MARTIN 216 LOC. 3 MZ. 48,AV. SAN MARTIN 216 LOC. 3 MZ. 48,3610,03718-422216,Festejos locales,,,-25.287038,-57.70816
oficina,agencia,459,AG. IBARRETA,FORMOSA,,,IBARRETA,SAN MARTIN 629,SAN MARTIN 629,3624,03716-432324,,,,-25.213017,-59.857564
oficina,agencia,460,AG. EL COLORADO,FORMOSA,,,EL COLORADO,SANTA FE 148,SANTA FE 148,3603,03717-481164,,,,-26.308381,-59.371841
oficina,agencia,461,AG. LAS LOMITAS,FORMOSA,,,PATIÑO,LIBERTAD 240 MANZANA 24 PARCELA D SECCION A,LIBERTAD 240 MANZANA 24 PARCELA D SECCION A,3630,03715-432355,,,,-24.70442,-60.592353
oficina,agencia,462,AG. LAGUNA BLANCA,FORMOSA,,,LAGUNA BLANCA,SAN MARTIN S/NRO.,SAN MARTIN S/NRO.,3613,03718-401692,,,,-25.128773,-58.245013
oficina,agencia,463,AG. INGENIERO JUAREZ,FORMOSA,,,INGENIERO JUAREZ,AVDA. DEGEN S/NRO.,AVDA. DEGEN S/NRO.,3636,03711-420077,,,,-23.896432,-61.853986
oficina,agencia,464,AG. PIRANE,FORMOSA,,,PIRANE,SARMIENTO Y GRAL. PAZ,SARMIENTO Y GRAL. PAZ,3613,03717-463108,,,,-25.731019,-59.107096
oficina,agencia,465,AG. GENERAL BELGRANO,FORMOSA,,,GENERAL MANUEL BELGRANO,AVDA. LIBERTADOR Y JUAN D. PERON,AVDA. LIBERTADOR Y JUAN D. PERON,3615,03716-491912,,,,-24.939332,-59.027359
oficina,agencia,466,AG. VILLA GENERAL GUEMES,FORMOSA,,,VILLA GENERAL GUEMES,GENERAL BELGRANO Y FONTANA,GENERAL BELGRANO Y FONTANA,3621,03716-492909,,,,-24.753496,-59.488871
oficina,ugl,0,,JUJUY,,,SAN SALVADOR DE JUJUY,LAVALLE 376,LAVALLE 376,4600,"0388-4228225 / 4222013 / 4222011 / 4227762 /4222902 / 4241541, fax: 0388-4224384","Danzas, prevención de sedentarismo, gimnasia, artesanías / manualidades, costura, yoga otras técnias orientales, eventos",int. 105/125/137/111,DR. CRISTIAN JAVIER ARNAU,-24.1844211,-65.3029085
oficina,agencia,448,AG. LA QUIACA,JUJUY,,,LA QUIACA,BALCARCE 156,BALCARCE 156,4650,03885-422460,,,,-22.10576,-65.598596
oficina,agencia,449,AG. SAN PEDRO,JUJUY,,,SAN PEDRO,GOBERNADOR TELLO 133,GOBERNADOR TELLO 133,4500,03888-420291 / 03888-422867,,,,-24.229609,-64.868864
oficina,agencia,450,AG. HUMAHUACA,JUJUY,,,HUMAHUACA,BUENOS AIRES 900,BUENOS AIRES 900,4630,03887-421019,,,,-23.206444,-65.348293
oficina,agencia,451,AG. LIB. GRAL. SAN MARTIN,JUJUY,,,LIB. GRAL. SAN MARTIN,AVDA. LIBERTAD 592,AVDA. LIBERTAD 592,4512,03886-421159 / 03886-433232,"Arte culinario, artesanias / manualidades, yoga otras técnicas orientales, actividad acuátuca, juegos de mesa, alfabetización, gimnasia, danzas",,,-23.818249,-64.792904
oficina,agencia,452,AG. PALPALA,JUJUY,,,PALPALÁ,AVDA. RIO DE LA PLATA 383,AVDA. RIO DE LA PLATA 383,4612,0388-4276906,,,,-24.25706,-65.213195
oficina,agencia,453,AG. PERICO,JUJUY,,,PERICO,AV. BELGRANO S/N (PASEO DE LOS ARTESANOS),AV. BELGRANO S/N (PASEO DE LOS ARTESANOS),4610,0388-4911595,,,,-24.37501,-65.118266
oficina,agencia,454,AG. EL CARMEN,JUJUY,,,EL CARMEN,EJÉRCITO DEL NORTE 83,EJÉRCITO DEL NORTE 83,4603,0388-4933297,,,,-24.38744,-65.264179
oficina,agencia,455,AG. TILCARA,JUJUY,,,TILCARA,JUJUY 551,JUJUY 551,4624,03884-955338,,,,-23.577558,-65.394148
oficina,agencia,456,AG. ABRA PAMPA,JUJUY,,,ABRA PAMPA,AV. JUAN D. PERON S/NRO.,AV. JUAN D. PERON S/NRO.,4640,03887-491353,,,,-22.721229,-65.696443
oficina,ugl,0,,LA PAMPA,,,SANTA ROSA,AV. SAN MARTIN OESTE 106,AV. SAN MARTIN OESTE 106,6300,"CONMUTADOR: 02954 45-1700, fax: 02954-428969","Teatro, memoria, actividad acuática, computación, danzas, canto / coro, técnicas de trabajo corporal, alimentación saludable, juegos de mesa, uso de tecnología, gimnasia, salud bucal, idiomas, historia y traciciones",02954-428742,SR. HERIBERTO ELOY MEDIZA,-36.62076800000001,-64.290062
oficina,agencia,421,AG. GRAL. PICO,LA PAMPA,,,GENERAL PICO,CALLE 13 NRO. 268,CALLE 13 NRO. 268,6360,02302-421793 / 434454 / 421793,"Teatro, actividad acuática, alimentación saludable, memoria",,,-35.661132,-63.757528
oficina,agencia,422,AG. GRAL. ACHA,LA PAMPA,,,GENERAL ACHA,MANUEL CAMPOS 532,MANUEL CAMPOS 532,8200,02952-432456,,,,-37.376126,-64.599917
oficina,agencia,423,AG. REALICO,LA PAMPA,,,REALICO,AV. MULLALLY 1716,AV. MULLALLY 1716,6200,02331-462276,,,,-35.037868,-64.246173
oficina,agencia,424,AG. MACACHIN,LA PAMPA,,,MACACHIN,SARMIENTO 214,SARMIENTO 214,6307,02953-452243,,,,-37.137672,-63.667588
oficina,agencia,425,AG. GENERAL SAN MARTIN,LA PAMPA,,,GRAL. SAN MARTIN,JUAN ADAGAS 120,JUAN ADAGAS 120,8206,02925-497307,,,,-37.979522,-63.602285
oficina,agencia,426,AG. GUATRACHE,LA PAMPA,,,GUATRACHE,AV. ZEBALLOS 496,AV. ZEBALLOS 496,6311,02924-492020,,,,-37.668671,-63.541544
oficina,agencia,427,AG. QUEMU QUEMU,LA PAMPA,,,QUEMU QUEMU,MITRE 567,MITRE 567,6333,02333-442136,,,,-36.054373,-63.566751
oficina,agencia,428,AG. COLONIA BARON,LA PAMPA,,,COLONIA BARON,DON BOSCO 1141,DON BOSCO 1141,6315,02333-476351,,,,-36.152984,-63.85221
oficina,agencia,429,AG. CATRILO,LA PAMPA,,,CATRILO,VIALE 228,VIALE 228,6330,02954-491066,,,,-36.407813,-63.419788
oficina,agencia,430,AG. EDUARDO CASTEX,LA PAMPA,,,EDUARDO CASTEX,SARMIENTO 759,SARMIENTO 759,6380,02334-452250,,,,-35.915435,-64.294317
oficina,agencia,431,AG. VICTORICA,LA PAMPA,,,VICTORICA,CALLE 16 NRO. 705,CALLE 16 NRO. 705,6319,02338-432391,,,,-36.216371,-65.436205
oficina,agencia,432,AG. INTENDENTE ALVEAR,LA PAMPA,,,INTENDENTE ALVEAR,AV. SAN MARTIN 156,AV. SAN MARTIN 156,6221,02302-481389,,,,-35.236261,-63.591424
oficina,agencia,433,AG. INGENIERO LUIGGI,LA PAMPA,,,INGENIERO LUIGGI,TUCUMAN 612,TUCUMAN 612,6205,02335-471394,,,,-35.386391,-64.467223
oficina,agencia,434,AG. COLONIA 25 DE MAYO,LA PAMPA,,,COLONIA 25 DE MAYO,TOAY 214,TOAY 214,8201,0299-4948144,,,,-37.774412,-67.714455
oficina,ugl,0,,LA RIOJA,,,LA RIOJA,AV. JUAN QUIROGA 53,AV. JUAN QUIROGA 53,5300,"03804-461165 (DIRECTO) 03804-426022/430759, fax: 03804-428650","Técnicas de trabajo corporal, alimentación saludable, enfermedades cardiovasculares, enfermedades endócrino metabólicas, yoga otras técnicas orientales, actividad acuática, memoria, charlas preventivas, festejos locales, música, canto / coro",int. 127 /139,DR. DIEGO FELIPE ALVAREZ,-29.4215717,-66.8568954
oficina,agencia,486,AG. CHILECITO,LA RIOJA,,,CHILECITO,JOAQUIN V. GONZALEZ 221,JOAQUIN V. GONZALEZ 221,5360,03825-422266 / 425116,,,,-29.164379,-67.5001
oficina,agencia,487,AG. CHAMICAL,LA RIOJA,,,CHAMICAL,SAN MARTIN 150,SAN MARTIN 150,5380,03826-422150,,,,-30.360656,-66.315157
oficina,agencia,488,AG. CHEPES,LA RIOJA,,,CHEPES,JUAN DOMINGO PERON Y ROQUE SAENZ PEÑA,JUAN DOMINGO PERON Y ROQUE SAENZ PEÑA,5470,03821-420231,,,,-31.335751,-66.592047
oficina,agencia,489,AG. AIMOGASTA,LA RIOJA,,,AIMOGASTA,20 DE MAYO 265,20 DE MAYO 265,5310,03827-420125,,,,-28.554181,-66.817267
oficina,agencia,490,AG. MILAGRO,LA RIOJA,,,EL MILAGRO,ESTAC. FERROCARRIL GRAL. BELGRANO,ESTAC. FERROCARRIL GRAL. BELGRANO,5274,03826-497171,"Gimnasia, alimentación saludable, enfermedades cariovasculares",,,-31.007886,-65.99488
oficina,agencia,491,AG. VILLA UNION,LA RIOJA,,,VILLA UNION,J. V. GONZALEZ E HIPOLITO IRIGOYEN,J. V. GONZALEZ E HIPOLITO IRIGOYEN,5350,03825-470000,,,,-29.315777,-68.227032
oficina,agencia,492,AG. SAN BLAS DE LOS SAUCES,LA RIOJA,,,SALICAS,CALLE PRINCIPAL S/NRO.,CALLE PRINCIPAL S/NRO.,5237,03827-497083,,,,-28.376732,-67.070743
oficina,agencia,493,AG. VINCHINA,LA RIOJA,,,VINCHINA,SAN MARTIN S/NRO.,SAN MARTIN S/NRO.,5357,03825-494113,,,,-28.762693,-68.206415
oficina,agencia,494,AG. TAMA,LA RIOJA,,,TAMA,ROSARIO VERA PEÑALOZA S/NRO. (MUNICIPIO),ROSARIO VERA PEÑALOZA S/NRO. (MUNICIPIO),5385,03826-490328,,,,-30.507499,-66.527284
oficina,agencia,495,AG. ANILLACO,LA RIOJA,,,ANILLACO,CATAMARCA OESTE S/NRO.,CATAMARCA OESTE S/NRO.,5301,03827-494053,,,,-28.80655,-66.942365
oficina,agencia,496,AG. FAMATINA,LA RIOJA,,,FAMATINA,9 DE JULIO S/NRO.,9 DE JULIO S/NRO.,5365,03825-493178,Festejos locales,,,-28.921857,-67.520092
oficina,agencia,497,AG. NONOGASTA,LA RIOJA,,,NONOGASTA,AV. EL LIBERTADOR S/NRO.,AV. EL LIBERTADOR S/NRO.,5372,03825-499410,,,,-29.301707,-67.504985
oficina,agencia,498,AG. OLTA,LA RIOJA,,,OLTA,SAN MARTIN ESQ. CASTRO BARROS,SAN MARTIN ESQ. CASTRO BARROS,5383,03826-491686,,,,-30.631376,-66.26372
oficina,agencia,499,AG. CAMPANAS,LA RIOJA,,,CAMPANAS,CALLE PUBLICA S/NRO. BARRIO LOS MAZA,CALLE PUBLICA S/NRO. BARRIO LOS MAZA,5361,03821-427010,,,,-28.566667,-67.616667
oficina,ugl,0,,MENDOZA,,,MENDOZA,CORDOBA 246,CORDOBA 246,5500,"CONMUTADOR: 0261-441-3900, fax: 0261-4413995 0261-4413992","Artesanías / Manualidades, Memoria, Narración",int. 123,DR. MARCELO ALVAREZ,-33.0345422,-68.8819954
oficina,agencia,89,AG. GUAYMALLEN,MENDOZA,,,GUAYMALLEN,AV. BANDERA DE LOS ANDES 3909,AV. BANDERA DE LOS ANDES 3909,5521,446-0056 / 0241,,,,-32.901858,-68.790983
oficina,agencia,90,AG. SAN MARTIN,MENDOZA,,,SAN MARTIN,LEANDRO ALEM 593,LEANDRO ALEM 593,5570,02623-4258745 / 425683 / 421288 / 4268715,,,,-32.903209,-68.827676
oficina,agencia,91,AG. TUNUYAN,MENDOZA,,,TUNUYAN,HIPOLITO IRIGOYEN 888,HIPOLITO IRIGOYEN 888,5560,02622-422541 / 3963,,,,-33.571007,-69.012902
oficina,agencia,92,AG. MAIPU,MENDOZA,,,MAIPU,MITRE 278,MITRE 278,5515,0261-4975487 / 4811850,,,,-32.981776,-68.78564
oficina,agencia,93,AG. LUJAN DE CUYO,MENDOZA,,,LUJAN DE CUYO,ROQUE SAENZ PEÑA 529,ROQUE SAENZ PEÑA 529,5507,0261-4980257 / 4982292 / 4982317 / 4982284,,,,-33.032467,-68.90313
oficina,agencia,94,AG. LAS HERAS,MENDOZA,,,LAS HERAS,SAN MARTIN 516,SAN MARTIN 516,5539,0261-4372768 / 78,,,,-32.860195,-68.83304
oficina,agencia,95,AG. 6TA. SECCION CAPITAL,MENDOZA,,,MENDOZA,PASO DE LOS ANDES 2955,PASO DE LOS ANDES 2955,5000,0261-4201058 / 4201123,,,,-32.868306,-68.854734
oficina,agencia,96,AG. LAVALLE,MENDOZA,,,LAVALLE,LAS HERAS 50,LAS HERAS 50,5533,0261-494 1966 / 0261-494 1966 LUNES Y MIER. (EN CENTRO DE JUBILADOS) TEL. 0261-4941180 MARTES (EN C,,,,-32.8862,-68.838769
oficina,agencia,97,AG. LA CONSULTA,MENDOZA,,,LA CONSULTA,9 DE JULIO 235,9 DE JULIO 235,5567,02622-471219,,,,-33.733263,-69.117873
oficina,agencia,98,AG. LA PAZ,MENDOZA,,,LA PAZ,GALIGNIANA 151,GALIGNIANA 151,5590,,,,,-33.45973,-67.549011
oficina,agencia,99,AG. LAS CATITAS,MENDOZA,,,LAS CATITAS,FRANCISCO CIROT 85,FRANCISCO CIROT 85,5594,,"Memoria, Narración",,,-33.29818,-68.047564
oficina,agencia,100,AG. RIVADAVIA,MENDOZA,,,RIVADAVIA,WENCESLAO NÚÑEZ 732,WENCESLAO NÚÑEZ 732,6237,0263-4555530 / 4442797,,,,-33.193844,-68.465602
oficina,agencia,101,AG. USPALLATA,MENDOZA,,,USPALLATA,SAN PABLO S/N,SAN PABLO S/N,5545,02624-420274,,,,-32.589942,-69.345471
oficina,agencia,102,AG. TUPUNGATO,MENDOZA,,,TUPUNGATO,ALMIRANTE BROWN 290,ALMIRANTE BROWN 290,5561,02622-488073,,,,-33.367435,-69.146687
oficina,agencia,103,AG. JUNIN,MENDOZA,,,JUNIN,LADISLAO SEGURA 123,LADISLAO SEGURA 123,5573,02623-4492486 / 4420274,,,,-33.145097,-68.485005
oficina,agencia,104,AG. SAN RAFAEL,MENDOZA,,,SAN RAFAEL,AV. RIVADAVIA 40,AV. RIVADAVIA 40,5600,"02627-425189/427998, fax: 02627-430217",,,,-34.6108,-68.327712
oficina,agencia,105,AG. GRAL. ALVEAR,MENDOZA,,,GENERAL ALVEAR,PELLEGRINI 370,PELLEGRINI 370,5620,02625-423946 / 3967,,,,-34.973936,-67.685654
oficina,agencia,106,AG. MALARGUE,MENDOZA,,,MALARGUE,AVDA. RUFINO ORTEGA 778,AVDA. RUFINO ORTEGA 778,5613,0260 - 447-1799 / 2687,,,,-35.47203,-69.580715
oficina,agencia,107,AG. VILLA ATUEL,MENDOZA,,,VILLA ATUEL,9 DE JULIO Y SARMIENTO,9 DE JULIO Y SARMIENTO,5622,0260-4605050,,,,-34.831031,-67.923496
oficina,agencia,108,AG. BOWEN,MENDOZA,,,BOWEN,COLON Y SAN MARTIN,COLON Y SAN MARTIN,5634,,,,,-35.001777,-67.497044
oficina,agencia,109,AG. MONTE COMAN,MENDOZA,,,MONTE COMAN,Av. Mendoza 149,Av. Mendoza 149,5609,02627-0260-4490051,,,,-34.59252,-67.879765
oficina,ugl,0,,MISIONES,,,POSADAS,SALTA 1744,SALTA 1744,3300,"0376-4427809 / 4421076 / 4438278 / 4421616 / 4421617, fax: 0376-4430548","Caminatas, técnicas de trabajo corporal, enfermedades endócrino metabólicas, yoga otras técnicas orientales, enfermedades oste músculo articulares, danzas, gimnasia, artesanías / menualidades, corte y confección, reciclado de ropa",0376-4438169,DRA. LILIANA DIAZ,-27.3717183,-55.89381479999999
oficina,agencia,368,AG. OBERA,MISIONES,,,OBERA,AV.LIBERTAD 455,AV.LIBERTAD 455,3360,03755-422766,,,,-27.487258,-55.113797
oficina,agencia,369,AG. ELDORADO,MISIONES,,,ELDORADO,LOWE 175,LOWE 175,3380,03751-421357,,,,-26.399404,-54.626784
oficina,agencia,370,AG. APOSTOLES,MISIONES,,,APOSTOLES,BELGRANO 447,BELGRANO 447,3350,03758-422144,,,,-27.914453,-55.754911
oficina,agencia,371,AG. JARDIN AMERICA,MISIONES,,,JARDIN AMERICA,URUGUAY 369,URUGUAY 369,3328,03743-460002,,,,-27.042767,-55.226905
oficina,agencia,372,AG. PUERTO RICO,MISIONES,,,PUERTO RICO,9 DE JULIO S/NRO.,9 DE JULIO S/NRO.,3334,03743-420099,,,,-26.8,-55.033333
oficina,agencia,373,AG. MONTECARLO,MISIONES,,,MONTECARLO,CULMEY Y HORACIO QUIROGA,CULMEY Y HORACIO QUIROGA,3384,03751-480502,,,,-26.566075,-54.763162
oficina,agencia,374,AG. PUERTO IGUAZU,MISIONES,,,PUERTO IGUAZU,SAN MARTIN 231 LOC. 6,SAN MARTIN 231 LOC. 6,3370,03757-421917,,,,-25.596261,-54.574415
oficina,agencia,375,AG. LEANDRO N. ALEM,MISIONES,,,LEANDRO N. ALEM,25 DE MAYO 25,25 DE MAYO 25,3315,03754-420161,,,,-27.600213,-55.317129
oficina,agencia,376,AG. SAN VICENTE,MISIONES,,,SAN VICENTE,JUAN BAUTISTA ALBERDI S/N,JUAN BAUTISTA ALBERDI S/N,3364,03755-460222,,,,-26.995016,-54.485843
oficina,agencia,377,AG. BERNARDO DE IRIGOYEN,MISIONES,,,BERNARDO DE IRIGOYEN,AV.GUACURARI S/N,AV.GUACURARI S/N,3366,03741-420220,,,,-26.250993,-53.65153
oficina,agencia,378,AG. SAN JAVIER,MISIONES,,,SAN JAVIER,SARMIENTO Y JACOBO LENUZZA,SARMIENTO Y JACOBO LENUZZA,3357,03754-482214,,,,-27.871878,-55.138904
oficina,agencia,379,AG. SAN PEDRO,MISIONES,,,SAN PEDRO,ALBERDI 358,ALBERDI 358,3364,03888-420291 / 03888-422867,,,,-26.630791,-54.113206
oficina,agencia,380,AG. PUERTO ESPERANZA,MISIONES,,,PUERTO ESPERANZA,ENTRE RIOS S/NRO.,ENTRE RIOS S/NRO.,3378,03757-480610,,,,-26.025107,-54.615186
oficina,agencia,381,AG. SAN IGNACIO,MISIONES,,,SAN IGNACIO,SAN MARTIN 253,SAN MARTIN 253,3322,03752-470384,,,,-27.259169,-55.537355
oficina,agencia,382,AG. EL SOBERBIO,MISIONES,,,EL SOBERBIO,MORENO 433,MORENO 433,3364,03755-495312,,,,-27.297655,-54.201139
oficina,agencia,383,AG. ARISTOBULO DEL VALLE,MISIONES,,,ARISTOBULO DEL VALLE,PADRE FIEGE 1054,PADRE FIEGE 1054,3364,03755-470381,,,,-27.09781,-54.896151
oficina,agencia,384,AG. SAN JOSE,MISIONES,,,SAN JOSE,AVDA. CENTENARIO Y DON BOSCO,AVDA. CENTENARIO Y DON BOSCO,3307,03758-492027,,,,-27.769836,-55.780606
oficina,agencia,385,AG. 25 DE MAYO,MISIONES,,,25 DE MAYO,RIVADAVIA 320,RIVADAVIA 320,3363,,,,,-27.376988,-54.743378
oficina,agencia,386,AG. CANDELARIA,MISIONES,,,CANDELARIA,AVDA. ROQUE GONZALEZ S/NRO.,AVDA. ROQUE GONZALEZ S/NRO.,3308,,,,,-27.461881,-55.745083
oficina,agencia,387,AG. SANTA ANA,MISIONES,,,SANTA ANA,AVDA. SAN MARTIN S/NRO.,AVDA. SAN MARTIN S/NRO.,3316,,,,,-27.370052,-55.580825
oficina,agencia,388,AG. PUERTO PIRAY,MISIONES,,,PUERTO PIRAY,MARCOS PAZ 2400,MARCOS PAZ 2400,3381,,,,,-26.469344,-54.716454
oficina,ugl,0,,NEUQUEN,,,NEUQUEN,SARMIENTO 659,SARMIENTO 659,8300,0299-442-6353 / 6866,,,DR. EDUARDO HERNANDEZ,-38.9571472,-68.068463
oficina,agencia,339,AG. NEUQUEN,NEUQUEN,,,NEUQUEN,HIPOLITO IRIGOYEN 45,HIPOLITO IRIGOYEN 45,8300,"0299-4475854 / 448-6902 / 448-7384 / 448-7383, fax: 0299-4426436",Alimentación saludable,0299-447 0853 / int 222 / 234,,-38.954637,-68.060671
oficina,agencia,340,AG. CUTRAL CO,NEUQUEN,,,CUTRAL CO,AVDA. OLASCOAGA 570,AVDA. OLASCOAGA 570,8322,0299-4961649 / 4860081,,,,-38.93249,-69.221295
oficina,agencia,341,AG. ZAPALA,NEUQUEN,,,ZAPALA,EJERCITO ARGENTINO 201,EJERCITO ARGENTINO 201,8340,02942-430817 02942 432155,"Alimentación saludable, enfermedades cardiovasculares, enfermedades endocrino metabólicas",,,-38.904977,-70.070161
oficina,agencia,342,AG. SAN MARTIN DE LOS ANDES,NEUQUEN,,,SAN MARTIN DE LOS ANDES,RAMAYON 640,RAMAYON 640,8370,02972-427854 / 411556,,,,-40.152621,-71.345669
oficina,agencia,343,AG. RINCON DE LOS SAUCES,NEUQUEN,,,RINCON DE LOS SAUCES,SAN MARTIN 1047,SAN MARTIN 1047,8319,0299-4886495,,,,-37.390857,-68.924496
oficina,agencia,344,AG. CENTENARIO,NEUQUEN,,,CENTENARIO,PADRE JACINTO STABILE 247,PADRE JACINTO STABILE 247,8309,0299-4891778,,,,-38.833791,-68.134983
oficina,agencia,345,AG. CHOS MALAL,NEUQUEN,,,CHOS MALAL,LAVALLE 120,LAVALLE 120,8353,02948-421297,,,,-37.376791,-70.27285
oficina,agencia,346,AG. PLOTTIER,NEUQUEN,,,PLOTTIER,MARTELOTTA 96,MARTELOTTA 96,8316,0299-4933581,,,,-38.952734,-68.229139
oficina,agencia,347,AG. JUNIN DE LOS ANDES,NEUQUEN,,,JUNIN DE LOS ANDES,CNEL. SUAREZ 59,CNEL. SUAREZ 59,8371,02972-491418,,,,-39.950543,-71.075023
oficina,agencia,348,AG. LONCOPUE,NEUQUEN,,,LONCOPUE,DAVID ALMENDRA S/NRO.,DAVID ALMENDRA S/NRO.,8349,02948-498135,,,,-38.071575,-70.615618
oficina,agencia,349,AG. ALUMINE,NEUQUEN,,,ALUMINE,CONRRADO VILLEGAS S/NRO.,CONRRADO VILLEGAS S/NRO.,8345,0294-2496245,,,,-39.234912,-70.922506
oficina,agencia,350,AG. VILLA LA ANGOSTURA,NEUQUEN,,,VILLA LA ANGOSTURA,CACIQUE SAYHUEQUE 179,CACIQUE SAYHUEQUE 179,8407,02944-494535,,,,-40.763251,-71.646187
oficina,agencia,351,AG. PLAZA HUINCUL,NEUQUEN,,,PLAZA HUINCUL,AVDA. SAN MARTIN 773,AVDA. SAN MARTIN 773,8318,0299-4965175,,,,-38.93032,-69.202005
oficina,agencia,352,AG. PIEDRA DEL AGUILA,NEUQUEN,,,PIEDRA DEL AGUILA,SARMIENTO 90,SARMIENTO 90,8315,0299-493290,,,,-40.047821,-70.074753
oficina,agencia,516,AG. GENERAL ROCA,NEUQUEN,,,GENERAL ROCA,9 DE JULIO Y BELGRANO,9 DE JULIO Y BELGRANO,8332,"0298-4428231 /4426211 /4421408 /4430768 /4435421 /4435453 /4428231 /4420588 / 4420000 /, fax: 0298-4431591","Actividad acuática, gimnasia, periodismo, encuentros vivenciales, reflexión, computación, alimentación saludable, enfermedades endócrino metabólicas, conocimiento t participación en prg. que defienden derechos de ad. mayores, narración",0298-4435421,,-39025,-67575
oficina,agencia,517,AG. VIEDMA,NEUQUEN,,,VIEDMA,IRIGOYEN 171,IRIGOYEN 171,8500,02920-422032,,,,-40.811276,-62.990052
oficina,agencia,518,AG. S. C. DE BARILOCHE,NEUQUEN,,,SAN CARLOS DE BARILOCHE,VICE ALMIRANTE O CONNOR 847,VICE ALMIRANTE O CONNOR 847,8400,0294-4421415 /4834 /1081,Actividad acuática,,,-41.133434,-71.297818
oficina,agencia,519,AG. CIPOLETTI,NEUQUEN,,,CIPOLETTI,HIPOLITO IRIGOYEN 1045,HIPOLITO IRIGOYEN 1045,8324,0299-4785226 / 4785341,,,,-38.939601,-67.98838
oficina,agencia,520,AG. VA. REGINA,NEUQUEN,,,VILLA REGINA,RIVADAVIA 87,RIVADAVIA 87,8336,02984-462141,"Yoga otras técnicas orientales, teatro, alimentación saludable, festejos locales",,,-39.099094,-67.08777
oficina,agencia,521,AG. EL ALTO BARILOCHE,NEUQUEN,,,SAN CARLOS DE BARILOCHE,BROWN 1071 E/RIUZ MORENO Y ELORDI E.,BROWN 1071 E/RIUZ MORENO Y ELORDI E.,8400,0294-4430071/ 4437760 / 4436040/ 4436549,,,,-41.148591,-71.297346
oficina,agencia,522,AG. SAN ANTONIO OESTE,NEUQUEN,,,SAN ANTONIO OESTE,BELGRANO 1140,BELGRANO 1140,8520,02934-421572,,,,-40.730023,-64.946036
oficina,agencia,523,AG. EL BOLSON,NEUQUEN,,,EL BOLSON,SAN MARTIN 3431,SAN MARTIN 3431,8430,02944-492544,,,,-41.966766,-71.535788
oficina,agencia,524,AG. CINCO SALTOS,NEUQUEN,,,CINCO SALTOS,SARMIENTO 346,SARMIENTO 346,8303,0299-4980776,,,,-38.825968,-68.067133
oficina,agencia,525,AG. CHOELE CHOEL,NEUQUEN,,,CHOELE CHOEL,SAN MARTIN 1291,SAN MARTIN 1291,8360,02946-442399,,,,-39.296264,-65.658442
oficina,agencia,526,AG. RIO COLORADO,NEUQUEN,,,RIO COLORADO,ROCA 122,ROCA 122,8138,02931-432172,,,,-38.992605,-64.09476
oficina,agencia,527,AG. INGENIERO JACOBACCI,NEUQUEN,,,INGENIERO JACOBACCI,SAN MARTIN 291,SAN MARTIN 291,8418,02940-432031,,,,-41.327681,-69.549344
oficina,agencia,528,AG. ALLEN,NEUQUEN,,,ALLEN,JUAN B. JUSTO 42,JUAN B. JUSTO 42,8328,02984-450698,,,,-38.978728,-67.82964
oficina,agencia,529,AG. CATRIEL,NEUQUEN,,,CATRIEL,JULIO A. ROCA 497,JULIO A. ROCA 497,8307,0299-4911435,,,,-37.883423,-67.799681
oficina,agencia,530,AG. ING. HUERGO,NEUQUEN,,,INGENIERO HUERGO,SAN MARTIN 703,SAN MARTIN 703,8334,02984-480349,,,,-39.069046,-67.235863
oficina,agencia,531,AG. GENERAL CONESA,NEUQUEN,,,GENERAL CONESA,SARMIENTO 267,SARMIENTO 267,8503,02931-498264,,,,-40.102958,-64.457738
oficina,agencia,532,AG. SIERRA GRANDE,NEUQUEN,,,SIERRA GRANDE,PEHUEN 185,PEHUEN 185,8532,02934- 481422,,,,-41.607068,-65.354884
oficina,agencia,533,AG. VALCHETA,NEUQUEN,,,VALCHETA,VICENTE LOPEZ Y GOB. PAGANO,VICENTE LOPEZ Y GOB. PAGANO,8536,02934-493-270 / 02940- 492281,,,,-40.847223,-68.088806
oficina,agencia,534,AG. LOS MENUCOS,NEUQUEN,,,LOS MENUCOS,LA PAMPA 1144,LA PAMPA 1144,8424,02940-492281,,,,-40.847851,-68.088989
oficina,agencia,535,AG. CAMPO GRANDE,NEUQUEN,,,"VILLA MANZANO, CAMPO GRANDE",LUIS PASTEUR 124,LUIS PASTEUR 124,8304,0299-4973375,,,,-38.680175,-68.214896
oficina,agencia,536,AG. GRAL. FERNANDEZ ORO,NEUQUEN,,,GRAL. FERNANDEZ ORO,MARIANO MORENO 263,MARIANO MORENO 263,8324,,,,,-38.952868,-67.923503
oficina,ugl,0,,SALTA,,,SALTA,ZUVIRIA 20,ZUVIRIA 20,4400,0387-431-1172 / 1284 / 1054 � 4311215 / 4313840 / 4314206,"técnicas de trabajo corporal, reflexión, alimentación saludable, enfermedades neurocognitivas, gimnasia, grupo autoayuda, arte culinario",int. 156,LIC. HERNAN SPOLLANSKY,-24.788651,-65.40960869999999
oficina,agencia,262,AG. TARTAGAL,SALTA,,,TARTAGAL,RICHIERI 51,RICHIERI 51,4560,03873-427929,,,,-22.512864,-63.80704
oficina,agencia,263,AG. ORAN,SALTA,,,ORAN,ALVARADO 464,ALVARADO 464,4530,03878-421463,,,,-23.133779,-64.325286
oficina,agencia,264,AG. METAN,SALTA,,,METAN,PJE. LOPEZ Y PLANES 224,PJE. LOPEZ Y PLANES 224,4440,03876-420631,,,,-25.49772,-64.969112
oficina,agencia,265,AG. JOAQUIN V. GONZALEZ,SALTA,,,JOAQUIN V. GONZALEZ,25 DE MAYO 303,25 DE MAYO 303,4448,03877-421130,,,,-25.117039,-64.121901
oficina,agencia,266,AG. CERRILLOS,SALTA,,,CERRILLOS,EGIDIO BONATO 201,EGIDIO BONATO 201,4403,,,,,-24.893853,-65.480931
oficina,agencia,267,AG. GENERAL GUEMES,SALTA,,,GRAL. GUEMES,ALEM 180,ALEM 180,4430,0387-4911354,,,,-24.674357,-65.044345
oficina,agencia,268,AG. CAFAYATE,SALTA,,,CAFAYATE,SEBASTIAN ARIAS 50,SEBASTIAN ARIAS 50,4427,03868-421183,,,,-26.072357,-65.981079
oficina,agencia,269,AG. ROSARIO DE LA FRONTERA,SALTA,,,ROSARIO DE LA FRONTERA,MELCHORA DE CORNEJO Y GRAL. GUEMES,MELCHORA DE CORNEJO Y GRAL. GUEMES,4190,03876-481672,,,,-25.800278,-64.974225
oficina,agencia,270,AG. EL CARRIL,SALTA,,,EL CARRIL,ISLAS MALVINAS 318,ISLAS MALVINAS 318,4421,0387-4908003,,,,-25.072344,-65.492595
oficina,agencia,271,AG. ROSARIO DE LERMA,SALTA,,,ROSARIO DE LERMA,9 DE JULIO 156 LOCAL 1,9 DE JULIO 156 LOCAL 1,4405,0387-4931428,,,,-24.984949,-65.579991
oficina,agencia,272,AG. CACHI,SALTA,,,CACHI,RUIZ DE LOS LLANOS S/NRO.,RUIZ DE LOS LLANOS S/NRO.,4417,03868-491033,,,,-25.121701,-66.164521
oficina,agencia,273,AG. EMBARCACION,SALTA,,,EMBARCACION,ESPAÑA 42,ESPAÑA 42,4550,03878-471340,,,,-23.211453,-64.096085
oficina,agencia,274,AG. APOLINARIO SARAVIA,SALTA,,,APOLINARIO SARAVIA,PJE. PEYROTTI 70,PJE. PEYROTTI 70,4449,03877-493018,,,,-24.430428,-63.994768
oficina,ugl,0,,SAN JUAN,,,CAPITAL,AV. CORDOBA 5/9 ESTE PISO 1,AV. CORDOBA 5/9 ESTE PISO 1,5400,"0264-4272294 / 4272324 / 4272738 / 4272749 / 4278475 / 76 / 77 / 78, fax: 0264-4277011","Gimnasia, caminatas, deportes, alimentación saludable, enfermedades endócrino metabólicas, controles médicos en salud, actividad acuática, reflexión, estimulación para transplantados, prevención del sedentarismo, yoga otras técnicas orientales, salud mental, artesanías / manualidades",0264-4277011,DR. NICOLAS GARCIA,-31.5272732,-68.5214081
oficina,agencia,436,AG. CAUCETE,SAN JUAN,,,CAUCETE,RAWSON 767,RAWSON 767,5442,0264-4961266,,,,-31.653491,-68.285487
oficina,agencia,437,AG. JACHAL,SAN JUAN,,,JACHAL,JUAN DE ECHEGARAY 622,JUAN DE ECHEGARAY 622,5460,02647-420417,,,,-30.240865,-68.746698
oficina,agencia,438,AG. RAWSON,SAN JUAN,,,RAWSON,BULEVAR SARMIENTO 18,BULEVAR SARMIENTO 18,5425,0264-4285086,,,,-31.669454,-68.390411
oficina,agencia,439,AG. CHIMBAS,SAN JUAN,,,CHIMBAS,YAPEYU 1682,YAPEYU 1682,5413,0264-4310550,,,,-31.513764,-68.515188
oficina,agencia,440,AG. POCITO,SAN JUAN,,,POCITO,ROBERTO VIDART E/URIBURU Y SANTA MARIA DE ORO,ROBERTO VIDART E/URIBURU Y SANTA MARIA DE ORO,5429,,,,,-31.683314,-68.583292
oficina,agencia,441,AG. VILLA MEDIA AGUA,SAN JUAN,,,MEDIA AGUA,CALLE ARES 70,CALLE ARES 70,5435,,,,,-31.981871,-68.42891
oficina,agencia,442,AG. BARREAL,SAN JUAN,,,BARREAL,CORDILLERA DE ANSILTA S/N,CORDILLERA DE ANSILTA S/N,5405,,,,,-31.634858,-69.474689
oficina,agencia,443,AG. VALLE FERTIL,SAN JUAN,,,VALLE FERTIL,GENERAL ACHA 84,GENERAL ACHA 84,5449,02646-420106,,,,-30.633038,-67.469108
oficina,agencia,444,AG. 9 DE JULIO,SAN JUAN,,,9 DE JULIO,DIAG. SAN MARTIN S/NRO.,DIAG. SAN MARTIN S/NRO.,5417,0264-4977136,,,,-31.669015,-68.390089
oficina,agencia,446,AG. VILLA SANTA ROSA,SAN JUAN,,,VILLA SANTA ROSA,RUTA NRO. 270 PASANDO CALLE 4,RUTA NRO. 270 PASANDO CALLE 4,5443,,,,,-31.73554,-68.323982
oficina,ugl,0,,SAN LUIS,,,SAN LUIS,SAN MARTIN 1233,SAN MARTIN 1233,5700,"0266-4423216 / 4433282 / 4420872 / 860 /4431453 / 052 /4430470, fax: 0266-4433282","Yoga otras técnicas orientales, danzas",Int. 113,DR. CRISTIAN PABLO MARCELO NINO PIGUILLEN,-33.2959871,-66.3393516
oficina,agencia,501,AG. VA. MERCEDES,SAN LUIS,,,VILLA MERCEDES,PROF. D. AGNILLO 27,PROF. D. AGNILLO 27,5730,02657-420821/ 427938 / 427939,,,,-33.68264,-65.465194
oficina,agencia,502,AG. MERLO,SAN LUIS,,,MERLO,LOS ALMENDROS 66,LOS ALMENDROS 66,5881,"02656-475097 / 478340, fax: 02656-478340",,,,-32.343965,-65.012205
oficina,agencia,503,AG. B. ESPERANZA,SAN LUIS,,,BUENA ESPERANZA,PEDERNERA S/NRO.,PEDERNERA S/NRO.,6277,02658-420160,,,,-34.75614,-65.253003
oficina,agencia,504,AG. S. F. DEL MONTE DE ORO,SAN LUIS,,,SAN FCO. DEL MONTE DE ORO,AV. BELGRANO S/NRO.,AV. BELGRANO S/NRO.,5705,02651-426089,,,,-32.598095,-66.127442
oficina,agencia,505,AG. CONCARAN,SAN LUIS,,,CONCARAN,URQUIZA S/NRO.,URQUIZA S/NRO.,5770,02656-480095,,,,-32.558606,-65.244892
oficina,agencia,506,AG. UNION,SAN LUIS,,,UNION,GRANADEROS PUNTANOS 430,GRANADEROS PUNTANOS 430,6216,02658-495013,,,,-35.152758,-65.945356
oficina,agencia,507,AG. LA TOMA,SAN LUIS,,,LA TOMA,MORENO 170,MORENO 170,5750,02655-421610,,,,-33.053997,-65.617483
oficina,agencia,508,AG. QUINES,SAN LUIS,,,QUINES,25 DE MAYO S/NRO.,25 DE MAYO S/NRO.,5711,02651-470279,,,,-32.232805,-65.802619
oficina,agencia,509,AG. JUSTO DARACT,SAN LUIS,,,JUSTO DARACT,AV.HIPOLITO IRIGOYEN 369,AV.HIPOLITO IRIGOYEN 369,5738,02657-480201 - RPV.4004,,,,-33.860687,-65.18343
oficina,agencia,510,AG. TILISARAO,SAN LUIS,,,TILISARAO,AVDA. CORDOBA 460,AVDA. CORDOBA 460,5773,02656-420687,,,,-32.733808,-65.289756
oficina,agencia,515,AG. JUANA KOSLAY,SAN LUIS,,,JUANA KOSLAY,AVDA. VIENTO CHORRILLERO Y LOS PEJES,AVDA. VIENTO CHORRILLERO Y LOS PEJES,5701,0266 -4450113,,,,-33.341356,-66.623093
oficina,agencia,678,AG. LA PUNTA,SAN LUIS,,,LA PUNTA,AV.SERRANA MZ 127 LIC. 16 LOCAL 2,AV.SERRANA MZ 127 LIC. 16 LOCAL 2,5710,,,,,,
oficina,agencia,689,AG. NASCHEL,SAN LUIS,,,NASCHEL,25 DE MAYO 433,25 DE MAYO 433,5759,02656-491472,,,,-32.916323,-65.374578
oficina,ugl,0,,SANTA CRUZ,,,RIO GALLEGOS,PERITO MORENO 467,PERITO MORENO 467,9400,"02966-421121/ 420898/ 426060, fax: 02966-421402","Relev. soc. san. de pob. b/prog. focalizados, artesanías / manualidades, yoga otras técnicas orientales, hadob, artes plásticas, gimnasia, danzas, alimentación saludable, computación",int. 118,SRA. MIRTA NOEMI ROJAS,-51.6196775,-69.2335167
oficina,agencia,538,AG. CALETA OLIVIA,SANTA CRUZ,,,CALETA OLIVIA,EVA PERON 232,EVA PERON 232,9011,0297-4851140,,,,-46.443476,-67.514466
oficina,agencia,539,AG. PUERTO SAN JULIAN,SANTA CRUZ,,,SAN JULIAN,AVDA. PIEDRA BUENA 669,AVDA. PIEDRA BUENA 669,9310,02962-452175,,,,-49.306112,-67.729923
oficina,agencia,540,AG. RIO TURBIO,SANTA CRUZ,,,RIO TURBIO,PELLEGRINI 19 BARRIO COMERCIAL,PELLEGRINI 19 BARRIO COMERCIAL,9407,02902-422-500,,,,-51.534217,-72.336059
oficina,agencia,541,AG. PUERTO SANTA CRUZ,SANTA CRUZ,,,PUERTO SANTA CRUZ,25 DE MAYO 50,25 DE MAYO 50,9300,02962-498600,,,,-50.017998,-68.521914
oficina,agencia,542,AG. PUERTO DESEADO,SANTA CRUZ,,,PUERTO DESEADO,MANUEL BELGRANO 237,MANUEL BELGRANO 237,9050,0297-4870334,,,,-47.748731,-65.888107
oficina,agencia,543,AG. LAS HERAS,SANTA CRUZ,,,LAS HERAS,28 DE NOVIEMBRE S/NRO.,28 DE NOVIEMBRE S/NRO.,9017,0297-4974722,,,,-46.543218,-68.933988
oficina,agencia,544,AG. EL CALAFATE,SANTA CRUZ,,,EL CALAFATE,AV. GRAL. PERON 1711,AV. GRAL. PERON 1711,9405,02902-491282,,,,-50.341982,-72.271893
oficina,agencia,545,AG. PERITO MORENO,SANTA CRUZ,,,PERITO MORENO,AV. SAN MARTIN 1963,AV. SAN MARTIN 1963,9040,02963-432080,,,,-46.5873,-70.926429
oficina,agencia,546,AG. PICO TRUNCADO,SANTA CRUZ,,,PICO TRUNCADO,SAAVEDRA 507,SAAVEDRA 507,9015,0297-4992672,,,,-46.798238,-67.967012
oficina,agencia,547,AG. LUIS PIEDRABUENA,SANTA CRUZ,,,LUIS PIEDRABUENA,BOLIVAR 381,BOLIVAR 381,9303,02962-497739,,,,-49.982192,-68.911493
oficina,agencia,548,AG. 28 DE NOVIEMBRE,SANTA CRUZ,,,28 DE NOVIEMBRE,TENIENTE DEL CASTILLO 281,TENIENTE DEL CASTILLO 281,9407,02902-482252,,,,-51.581283,-72.213356
oficina,agencia,549,AG. GDOR. GREGORES,SANTA CRUZ,,,GOBERNADOR GREGORES,SAN MARTIN 409,SAN MARTIN 409,9311,02962 - 491037,,,,-48.750445,-70.250022
oficina,ugl,0,,SANTA FE,,,ROSARIO,SAN LORENZO 926,SAN LORENZO 926,2000,"CONMUTADOR: 0341 410-2400 (INTERNOS 2511 AL 2513), fax: 0341-4102481","Gimnasia, artesanías / manualidades, memoria, voluntariado, alimentación saludable",0341-4102425,SRA. IRIS CAPARROS,-32.9450235,-60.6353302
oficina,agencia,197,AG. ARROYO SECO,SANTA FE,,,ARROYO SECO,BELGRANO 434,BELGRANO 434,2128,03402-421989,,,,-33.159613,-60.512795
oficina,agencia,198,AG. CARCARANA,SANTA FE,,,CARCARANA,AV. BELGRANO 1418,AV. BELGRANO 1418,2138,0341-494008,,,,-32.857203,-61.151884
oficina,agencia,199,AG. VILLA GDOR. GALVEZ,SANTA FE,,,VILLA GDOR. GALVEZ,LIBERTAD 697,LIBERTAD 697,2124,0341-3173400,,,,-33.020712,-60.618101
oficina,agencia,200,AG. CASILDA,SANTA FE,,,CASILDA,BUENOS AIRES 2722,BUENOS AIRES 2722,2170,0346-4422803/4569/3150,,,,-33.047414,-61.172522
oficina,agencia,201,AG. VENADO TUERTO,SANTA FE,,,VENADO TUERTO,LISANDRO DE LA TORRE 841,LISANDRO DE LA TORRE 841,2600,0346-2422402 / 2432680,,,,-33.748429,-61.973644
oficina,agencia,202,AG. RUFINO,SANTA FE,,,RUFINO,BERNABE FERREYRA 151,BERNABE FERREYRA 151,6100,03382-428542,,,,-34.264878,-62.709718
oficina,agencia,203,AG. SAN LORENZO,SANTA FE,,,SAN LORENZO,BV. URQUIZA 556,BV. URQUIZA 556,2200,03476-422309/431738,,,,-32.747309,-60.733348
oficina,agencia,204,AG. VILLA CONSTITUCION,SANTA FE,,,VILLA CONSTITUCION,LISANDRO DE LA TORRE 444,LISANDRO DE LA TORRE 444,2919,03400-474101,,,,-33.227416,-60.330995
oficina,agencia,205,AG. CANADA DE GOMEZ,SANTA FE,,,CANADA DE GOMEZ,ESPAÑA 164,ESPAÑA 164,2500,03471-424178,,,,-32.819577,-61.393129
oficina,agencia,206,AG. CHANAR LADEADO,SANTA FE,,,CHAÑAR LADEADO,9 DE JULIO 224,9 DE JULIO 224,2643,03468-481246,,,,-33.321743,-62.037399
oficina,agencia,207,AG. LAS ROSAS,SANTA FE,,,LAS ROSAS (DEPTO. BELGRANO),ITALIA 112,ITALIA 112,2520,03471-451449,,,,-32.47494,-61.578298
oficina,agencia,208,AG. FIRMAT,SANTA FE,,,FIRMAT,BV. COLON 1172,BV. COLON 1172,2630,03465-423224,,,,-33.454431,-61.48809
oficina,agencia,209,AG. ALCORTA,SANTA FE,,,ALCORTA,ESPAÑA 838,ESPAÑA 838,2177,03465-47-0470,,,,-33.539857,-61.120899
oficina,agencia,210,AG. TOTORAS,SANTA FE,,,TOTORAS,CARLOS PELLEGRINI 845,CARLOS PELLEGRINI 845,2144,03476-460156,,,,-32.585187,-61.167762
oficina,agencia,211,AG. SAN GREGORIO,SANTA FE,,,SAN GREGORIO,SAN MARTIN 797,SAN MARTIN 797,2613,03382-470389,,,,-34.325278,-62.038611
oficina,agencia,212,AG. WHEELWRIGHT,SANTA FE,,,WHEELWRIGHT,GRAL. LOPEZ 434,GRAL. LOPEZ 434,2722,02473-481483,,,,-33.791988,-61.211751
oficina,agencia,213,AG. VILLA CANAS,SANTA FE,,,VILLA CANAS,CALLE 53 NRO. 315,CALLE 53 NRO. 315,2607,03462-451816,,,,-34.005783,-61.603367
oficina,agencia,214,AG. GRANADERO BAIGORRIA,SANTA FE,,,GRANADERO BAIGORRIA,RIVADAVIA Y PUEYRREDON,RIVADAVIA Y PUEYRREDON,2152,0341 - 5258857,,,,-32.861871,-60.703994
oficina,agencia,215,AG. FUNES,SANTA FE,,,FUNES,SANTA FE 1750,SANTA FE 1750,0,0341- 493 2406,,,,-32.918034,-60.812033
oficina,agencia,675,BOCA DE ATENCION ROSARIO SUR,SANTA FE,,,ROSARIO SUR,SAN MARTIN 4816,SAN MARTIN 4816,2001,,,,,-32.993133,-60.647196
oficina,agencia,679,AG. PEREZ,SANTA FE,,,ROSARIO,AV. BELGRANO 1897 (RUTA 33),AV. BELGRANO 1897 (RUTA 33),2000,0341-526-3267,,,,-32.99711,-60.76792
oficina,ugl,0,,SANTA FE,,,SANTA FE,1 DE MAYO 2269,1 DE MAYO 2269,3000,"CONMUTADOR: 0342-410-1500, fax: 0342-4524228",,0342-4831878,SR. MARCELO JORGE VIOLA,-31.6485202,-60.71147939999999
oficina,agencia,316,AG. RAFAELA,SANTA FE,,,RAFAELA,BOULEVARD ROCA 255,BOULEVARD ROCA 255,2300,03492-420307 / 420247 / 420312 / 434598,"Memoria, voluntariado",,,-31.251809,-61.494473
oficina,agencia,317,AG. EL TREBOL,SANTA FE,,,EL TREBOL,SANTA FE 951,SANTA FE 951,2535,03401-422376,,,,-32.196533,-61.701722
oficina,agencia,318,AG. RECONQUISTA,SANTA FE,,,RECONQUISTA,PTE. ROCA 1032,PTE. ROCA 1032,3560,03482-425971/423960,,,,-29.144065,-59.64371
oficina,agencia,319,AG. ESPERANZA,SANTA FE,,,ESPERANZA,AV. CORDOBA 1982,AV. CORDOBA 1982,3080,03496-420100,,,,-31.447648,-60.934771
oficina,agencia,320,AG. CORONDA,SANTA FE,,,CORONDA,AV. BELGRANO 2001 ESQ. MORENO,AV. BELGRANO 2001 ESQ. MORENO,2240,"0342-4910351, fax: 0342-4910351",,,,-31.972005,-60.91924
oficina,agencia,321,AG. CERES,SANTA FE,,,CERES,MORENO 185,MORENO 185,2340,03491-420293,,,,-29.881509,-61.949086
oficina,agencia,322,AG. VERA,SANTA FE,,,VERA,COLON 1635,COLON 1635,3550,03483-420255,,,,-29.464037,-60.21625
oficina,agencia,323,AG. SAN JAVIER,SANTA FE,,,SAN JAVIER,ALVEAR 2056,ALVEAR 2056,3005,03405-424402,,,,-30.579997,-59.931636
oficina,agencia,324,AG. SAN JUSTO,SANTA FE,,,SAN JUSTO,SAN MARTIN 2353,SAN MARTIN 2353,3040,03498-427371,,,,-30.786106,-60.589603
oficina,agencia,325,AG. SAN CARLOS,SANTA FE,,,SAN CARLOS CENTRO,BELGRANO 1555,BELGRANO 1555,3013,03404-420669,,,,-31.72616,-61.089013
oficina,agencia,326,AG. VILLA OCAMPO,SANTA FE,,,VILLA OCAMPO,PADRE ANGEL TIBALDO 1003,PADRE ANGEL TIBALDO 1003,3580,03482-467545,,,,-28.486534,-59.353473
oficina,agencia,327,AG. GALVEZ,SANTA FE,,,GALVEZ,1° JUNTA 660,1° JUNTA 660,2252,03404-482686,,,,-32.032018,-61.217122
oficina,agencia,328,AG. SANTO TOME,SANTA FE,,,SANTO TOME,AVELLANEDA 2051,AVELLANEDA 2051,3016,0342-4832951,,,,-31.662587,-60.761101
oficina,agencia,329,AG. LAS TOSCAS,SANTA FE,,,LAS TOSCAS,CALLE 6 E/13 Y 15,CALLE 6 E/13 Y 15,3586,03482-492201,,,,-28.349863,-59.259667
oficina,agencia,330,AG. SAN JORGE,SANTA FE,,,SAN JORGE,URQUIZA 1269,URQUIZA 1269,2451,03406-440963,,,,-31.894538,-61.859479
oficina,agencia,331,AG. SAN CRISTOBAL,SANTA FE,,,SAN CRISTOBAL,HIPOLITO IRIGOYEN 783,HIPOLITO IRIGOYEN 783,3070,03408-422247,,,,-30.305021,-61.23755
oficina,agencia,332,AG. TOSTADO,SANTA FE,,,TOSTADO,INDEPENDENCIA 1787,INDEPENDENCIA 1787,3060,03491-470288,,,,-29.231287,-61.771417
oficina,agencia,333,AG. SAN GUILLERMO,SANTA FE,,,SAN GUILLERMO,SAN MARTIN 730,SAN MARTIN 730,2347,03562-466491,,,,-30.359471,-61.915605
oficina,agencia,334,AG. SUNCHALES,SANTA FE,,,SUNCHALES,AMEGHINO 27,AMEGHINO 27,2322,03493-421764,,,,-30.941912,-61.55988
oficina,agencia,335,AG. MARIA JUANA,SANTA FE,,,MARIA JUANA,SARMIENTO 64,SARMIENTO 64,2445,03406-471320,,,,-31.674932,-61.751025
oficina,agencia,336,AG. HELVECIA,SANTA FE,,,HELVECIA,SENADOR ANTILLE 750,SENADOR ANTILLE 750,3003,03405-470458,,,,-31.098696,-60.084279
oficina,agencia,337,AG. LAGUNA PAIVA,SANTA FE,,,LAGUNA PAIVA,25 DE MAYO 2400,25 DE MAYO 2400,3020,0342-4941810,,,,-31.305212,-60.66179
oficina,ugl,0,,SGO. DEL ESTERO,,,SGO. DEL ESTERO,PELLEGRINI 335,PELLEGRINI 335,4200,"0385-4219300 / 0285-4224558, fax: 0385-4224559","Artesanías / manualidades, yoga otras técnicas orientales, artes plásticas, danzas, gimnasia, técnicas de trabajo corporal",int. 123,ING. NESTOR OSVALDO SEFERINO MACHADO,,
oficina,agencia,390,AG. ANATUYA,SGO. DEL ESTERO,,,AÑATUYA,DR. STEMBERG 117,DR. STEMBERG 117,3760,03844-421561,"Yoga otras técnicas orientales, gimnasia, danzas, canto / coro, artesanías / manualidades, teatro",,,-28.461636,-62.834551
oficina,agencia,391,AG. FRIAS,SGO. DEL ESTERO,,,FRIAS,BELGRANO 57,BELGRANO 57,4230,03854-421028,,,,-28.637493,-65.130068
oficina,agencia,392,AG. TERMAS DE RIO HONDO,SGO. DEL ESTERO,,,TERMAS DE RIO HONDO,DORREGO 27,DORREGO 27,4220,03858-421088,,,,-27.496933,-64.85957
oficina,agencia,393,AG. FERNANDEZ,SGO. DEL ESTERO,,,FERNANDEZ,INDEPENDENCIA 126,INDEPENDENCIA 126,4322,0385-4911340,,,,-27.921507,-63.893702
oficina,agencia,394,AG. LORETO,SGO. DEL ESTERO,,,LORETO,EDUARDO MIGUEL 47 -PB-LOCAL 1,EDUARDO MIGUEL 47 -PB-LOCAL 1,4208,03845-420104,,,,-28.302567,-64.179397
oficina,agencia,395,AG. VA. OJO DE AGUA,SGO. DEL ESTERO,,,VILLA OJO DE AGUA,SAN MARTÍN 571,SAN MARTÍN 571,5250,03856-421025,,,,-29.501208,-63.694446
oficina,agencia,396,AG. QUIMILI,SGO. DEL ESTERO,,,QUIMILI,MORENO 257,MORENO 257,3740,03854-421158,Gimnasia,,,-27.64263,-62.415748
oficina,agencia,397,AG. LA BANDA,SGO. DEL ESTERO,,,LA BANDA,AV. BELGRANO 158,AV. BELGRANO 158,4300,0385-4271115 / 4277076,,,,-27.733889,-64.241077
oficina,agencia,398,AG. CLODOMIRA,SGO. DEL ESTERO,,,CLODOMIRA,REPUBLICA 634,REPUBLICA 634,4338,0385-4921544,,,,-27.580644,-64.134715
oficina,agencia,399,AG. SELVA,SGO. DEL ESTERO,,,SELVA,RIVADAVIA 403,RIVADAVIA 403,2354,03857-495124,,,,-29.765756,-62.050145
oficina,agencia,400,AG. BANDERA,SGO. DEL ESTERO,,,BANDERA,RIVADAVIA S/N° - ENTRE MORENO Y SARMIENTO,RIVADAVIA S/N° - ENTRE MORENO Y SARMIENTO,3064,03857-421065,,,,-28.888101,-62.268237
oficina,agencia,401,AG. PINTO,SGO. DEL ESTERO,,,PINTO,RAMON CARRILLO 444,RAMON CARRILLO 444,2356,03857-481056,,,,-29.133333,-62.65
oficina,agencia,402,AG. SUNCHO CORRAL,SGO. DEL ESTERO,,,SUNCHO CORRAL,9 DE JULIO S/N° - ENTRE BELGRANO Y TUCUMAN,9 DE JULIO S/N° - ENTRE BELGRANO Y TUCUMAN,4350,03855-421188,,,,-27.931858,-63.429923
oficina,agencia,403,AG. VILLA ATAMISQUI,SGO. DEL ESTERO,,,VILLA ATAMISQUI,LA RIOJA S/N° - ENTRE ALVARADO Y SAN MARTIN,LA RIOJA S/N° - ENTRE ALVARADO Y SAN MARTIN,4317,03845-494071,,,,-28.495134,-63.816926
oficina,agencia,404,AG. MONTE QUEMADO,SGO. DEL ESTERO,,,MONTE QUEMADO,SAN MARTIN 724,SAN MARTIN 724,3714,03841-421156,,,,-25.801746,-62.83031
oficina,agencia,405,AG. CAMPO GALLO,SGO. DEL ESTERO,,,CAMPO GALLO,IRIGOYEN S/NRO. E/RIVADAVIA Y LASALLE,IRIGOYEN S/NRO. E/RIVADAVIA Y LASALLE,3747,,,,,-26.582156,-62.849708
oficina,agencia,406,AG. TINTINA,SGO. DEL ESTERO,,,TINTINA,SAN JUAN N° 253  ENTRE RIVADAVIA Y FARATH,SAN JUAN N° 253  ENTRE RIVADAVIA Y FARATH,3743,03846-421028,,,,-27.026483,-62.704818
oficina,agencia,407,AG. POZO HONDO,SGO. DEL ESTERO,,,POZO HONDO,GASPAR JUAREZ S/NRO.,GASPAR JUAREZ S/NRO.,4184,,,,,-27.166667,-64.486406
oficina,agencia,408,AG. NUEVA ESPERANZA,SGO. DEL ESTERO,,,NUEVA ESPERANZA,CNEL. BORGES Y GALLO,CNEL. BORGES Y GALLO,4197,03861-421026,,,,-26.198843,-64.236896
oficina,agencia,409,AG. SAN PEDRO DE GUASAYAN,SGO. DEL ESTERO,,,SAN PEDRO DE GUASAYAN,CNEL. BORGES Y PEDRO LEON GALLO,CNEL. BORGES Y PEDRO LEON GALLO,4238,03854-493079,,,,-27.954378,-65.165455
oficina,agencia,410,AG. LOS JURIES,SGO. DEL ESTERO,,,LOS JURIES,PRESIDENTE PERON Y SARMIENTO S/N°,PRESIDENTE PERON Y SARMIENTO S/N°,3763,03857-471094,,,,-28.465032,-62.109368
oficina,agencia,411,AG. PAMPA DE LOS GUANACOS,SGO. DEL ESTERO,,,PAMPA DE LOS GUANACOS,BELGRANO ESQ. SALTA BARRIO PRO-VI-RU,BELGRANO ESQ. SALTA BARRIO PRO-VI-RU,3712,03841-491097,,,,-26.229375,-61.837456
oficina,agencia,413,AG. SUMAMPA,SGO. DEL ESTERO,,,SUMAMPA,9 DE JULIO 143,9 DE JULIO 143,5253,03856-491041,,,,-29.384494,-63.472273
oficina,agencia,417,AG. COLONIA DORA,SGO. DEL ESTERO,,,COLONIA DORA,AV. CORRIENTES S/N° - ENTRE MITRE Y SUIPACHA,AV. CORRIENTES S/N° - ENTRE MITRE Y SUIPACHA,4332,03844-481709,,,,-28.598539,-62.947118
oficina,agencia,418,AG. BELTRAN,SGO. DEL ESTERO,,,BELTRAN,JUAN XXIII S/N° - ENTRE SAN MARTIN Y URIARTE,JUAN XXIII S/N° - ENTRE SAN MARTIN Y URIARTE,4308,0385-4903380,,,,-27.827729,-64.061201
oficina,ugl,0,,"TIERRA DEL FUEGO, ANTARTIDA E ISLAS DEL ATLANTICO SUR",,,USHUAIA,AKAINIK 587,AKAINIK 587,9410,"02901-422454 / 423382, fax: INT. 140","Gimnasia, yoga otras técnicas orientales, computación, memoria",,CAMILO GOMEZ,-54.814004,-68.3384906
oficina,agencia,604,AG. RIO GRANDE,"TIERRA DEL FUEGO, ANTARTIDA E ISLAS DEL ATLANTICO SUR",,,RIO GRANDE,ESPORA 781,ESPORA 781,9420,02964-430803 / 425764,,,,-53.788762,-67.69868
oficina,agencia,683,BOCA DE ATENCION TOLHUIN,"TIERRA DEL FUEGO, ANTARTIDA E ISLAS DEL ATLANTICO SUR",,,TOLHUIN,SHELKNAM 416,SHELKNAM 416,9420,02901 492238,,,,-53.804338,-67.664262
oficina,ugl,0,,TUCUMAN,,,CAPITAL,Cordoba 987,Cordoba 987,4000,"CONMUTADOR: 0381-410-1300, fax: 0381-4310075","Artesanías / Manualidades, Arte Culinario, Alfabetización, Historia y Tradiciones, Encuentros Vivenciales, Memoria, Evento, Voluntariado",0381-4222889 /4306210,DR. LUIS A. LARCHER,-26.8254832,-65.2110245
oficina,agencia,2,AG. CONCEPCION,TUCUMAN,,,CONCEPCION,9 DE JULIO 161,9 DE JULIO 161,4146,03865-422200,,,,-27.337005,-65.595274
oficina,agencia,3,AG. BANDA DEL RIO SALI,TUCUMAN,,,BANDA DEL RIO SALI,SAN MARTIN 514,SAN MARTIN 514,4109,0381- 4261078,,,,-26.843755,-65.167215
oficina,agencia,4,AG. FAMAILLA,TUCUMAN,,,FAMAILLA,RIVADAVIA 285,RIVADAVIA 285,4132,"0386-3461051, fax: 0386-3461051",,,,-27.055228,-65.402133
oficina,agencia,5,AG. MONTEROS,TUCUMAN,,,MONTEROS,BELGRANO 244,BELGRANO 244,4142,"03863-428517, fax: 0386-3426028",,,,-27.162877,-65.496461
oficina,agencia,6,AG. AGUILARES,TUCUMAN,,,AGUILARES,ALBERDI ESQ. PELLEGRINI,ALBERDI ESQ. PELLEGRINI,4152,03865-483798,,,,-27.42968,-65.61553
oficina,agencia,7,AG. TAFI DEL VALLE,TUCUMAN,,,TAFI DEL VALLE,LOS PALENQUES SIN NRO.,LOS PALENQUES SIN NRO.,4137,03867-421059,,,,-26.84582,-65.700119
oficina,agencia,8,AG. JUAN B. ALBERDI,TUCUMAN,,,ALBERDI,LIDORO QUINTEROS 423,LIDORO QUINTEROS 423,4172,03865-472907,,,,-27.583992,-65.619807
oficina,agencia,9,AG. SIMOCA,TUCUMAN,,,SIMOCA,MANUEL BELGRANO 554,MANUEL BELGRANO 554,4172,03863-482034,,,,-27.262336,-65.354884
oficina,agencia,10,AG. TAFI VIEJO,TUCUMAN,,,TAFI VIEJO,ALEM 743,ALEM 743,4103,0381- 4617885,,,,-26.729044,-65.267631
oficina,agencia,11,AG. TACO RALO,TUCUMAN,,,TACO RALO,FLORIDA 466,FLORIDA 466,4242,,,,,-27.833346,-65.194209
oficina,agencia,12,AG. TRANCAS,TUCUMAN,,,TRANCAS,25 DE MAYO 614,25 DE MAYO 614,4124,03862-21100,,,,-26.207199,-65.283222
oficina,agencia,13,AG. RANCHILLOS,TUCUMAN,,,RANCHILLOS,SAN MARTIN 480,SAN MARTIN 480,4178,03869-421022 / 15-4043041,,,,-26.954628,-65.049369
oficina,agencia,14,AG. SANTA ROSA DE LEALES,TUCUMAN,,,SANTA ROSA DE LEALES,BELGRANO 250,BELGRANO 250,4111,0386-3493045,,,,-27.137827,-65.261121
oficina,agencia,15,AG. BURRUYACU,TUCUMAN,,,BURRUYACU,MARIANO RAMOS 523,MARIANO RAMOS 523,4119,,,,,-26.499132,-64.741963
oficina,agencia,16,AG. LULES,TUCUMAN,,,LULES,ZOILO DOMINGUEZ N° 21,ZOILO DOMINGUEZ N° 21,4128,0381-4811464,,,,-26.92494,-65.338233
oficina,agencia,17,AG. LA COCHA,TUCUMAN,,,LA COCHA,SAN MARTIN Y 25 DE MAYO BARRIO HIPOTACARIO LOTE 8,SAN MARTIN Y 25 DE MAYO BARRIO HIPOTACARIO LOTE 8,4162,,,,,-27.770823,-65.586712
oficina,agencia,18,AG. AMAICHA DEL VALLE,TUCUMAN,,,AMAICHA DEL VALLE,SAN MARTIN S/NRO.,SAN MARTIN S/NRO.,4137,03892-421002,"Idiomas, computación",,,-26.593765,-65.920063
oficina,agencia,19,AG. BELLA VISTA,TUCUMAN,,,BELLA VISTA,INGENIERO MARCONI 250,INGENIERO MARCONI 250,4168,0381-4821894,,,,-27.032772,-65.307103
oficina,agencia,20,AG. YERBA BUENA,TUCUMAN,,,YERBA BUENA,AV. ACONQUIJA 1315,AV. ACONQUIJA 1315,4107,0381-425 0969,,,,-26.814276,-65.288402
